{"type": "FeatureCollection", "features": [{"type": "Feature", "properties": {"road_id": 1, "geometry_status": "ok", "route_length_km": 59.40797421896704}, "geometry": {"type": "MultiLineString", "coordinates": [[[29.674058, 9.477118], [29.9816678, 9.9190338]]]}}, {"type": "Feature", "properties": {"road_id": 2, "geometry_status": "ok", "route_length_km": 64.20319900464649}, "geometry": {"type": "MultiLineString", "coordinates": [[[31.797714, 5.6807128], [31.5614397, 6.2108741]]]}}, {"type": "Feature", "properties": {"road_id": 3, "geometry_status": "ok", "route_length_km": 23.719769870420986}, "geometry": {"type": "MultiLineString", "coordinates": [[[30.08876, 10.10535], [29.9816678, 9.9190338]]]}}, {"type": "Feature", "properties": {"road_id": 4, "geometry_status": "ok", "route_length_km": 147.4196739456108}, "geometry": {"type": "MultiLineString", "coordinates": [[[31.5959173, 4.8459246], [31.9569508, 3.868055], [32.0601419, 3.5969348]]]}}, {"type": "Feature", "properties": {"road_id": 5, "geometry_status": "ok", "route_length_km": 119.89656122310551}, "geometry": {"type": "MultiLineString", "coordinates": [[[31.5959173, 4.8459246], [31.6205247, 4.8021113], [32.0774384, 4.6440169], [32.300148, 4.498553], [32.5682244, 4.4134473]]]}}, {"type": "Feature", "properties": {"road_id": 6, "geometry_status": "ok", "route_length_km": 43.65303342485979}, "geometry": {"type": "MultiLineString", "coordinates": [[[31.5959173, 4.8459246], [31.7699131, 5.1998722]]]}}, {"type": "Feature", "properties": {"road_id": 7, "geometry_status": "ok", "route_length_km": 52.174927459942296}, "geometry": {"type": "MultiLineString", "coordinates": [[[31.6584168, 9.5388487], [32.0661924, 9.2971519]]]}}, {"type": "Feature", "properties": {"road_id": 8, "geometry_status": "ok", "route_length_km": 145.95536950489569}, "geometry": {"type": "MultiLineString", "coordinates": [[[32.5466093, 10.4583543], [32.8087719, 11.751936]]]}}, {"type": "Feature", "properties": {"road_id": 9, "geometry_status": "ok", "route_length_km": 88.79620596413754}, "geometry": {"type": "MultiLineString", "coordinates": [[[32.9623737, 10.064973], [33.22419, 10.147423]], [[33.22419, 10.147423], [33.7259061, 9.9633955]]]}}, {"type": "Feature", "properties": {"road_id": 10, "geometry_status": "ok", "route_length_km": 61.9832110602517}, "geometry": {"type": "MultiLineString", "coordinates": [[[28.4405788, 9.5974896], [28.7102808, 9.2899378], [28.821029, 9.3956658]]]}}, {"type": "Feature", "properties": {"road_id": 11, "geometry_status": "ok", "route_length_km": 183.32326333276276}, "geometry": {"type": "MultiLineString", "coordinates": [[[27.3962085, 8.7693352], [26.9899093, 9.1275553], [26.850348, 9.102835], [25.981885951833736, 8.647804284789705]]]}}, {"type": "Feature", "properties": {"road_id": 12, "geometry_status": "ok", "route_length_km": 47.28648575555652}, "geometry": {"type": "MultiLineString", "coordinates": [[[31.8342865, 8.0695589], [32.0489069, 8.1647526]], [[32.0489069, 8.1647526], [32.1528986, 8.179364], [32.2397749, 8.1595168]]]}}, {"type": "Feature", "properties": {"road_id": 13, "geometry_status": "ok", "route_length_km": 80.46268699523922}, "geometry": {"type": "MultiLineString", "coordinates": [[[31.5959173, 4.8459246], [31.0755257, 4.3396843]]]}}, {"type": "Feature", "properties": {"road_id": 14, "geometry_status": "ok", "route_length_km": 124.4319557773249}, "geometry": {"type": "MultiLineString", "coordinates": [[[29.4645282, 4.9143633], [28.39767, 4.5680716]]]}}, {"type": "Feature", "properties": {"road_id": 15, "geometry_status": "ok", "route_length_km": 107.8410774924507}, "geometry": {"type": "MultiLineString", "coordinates": [[[31.5959173, 4.8459246], [31.6649919, 3.8732643]]]}}, {"type": "Feature", "properties": {"road_id": 16, "geometry_status": "ok", "route_length_km": 69.13767593530918}, "geometry": {"type": "MultiLineString", "coordinates": [[[31.5959173, 4.8459246], [31.753986, 5.450554]]]}}, {"type": "Feature", "properties": {"road_id": 17, "geometry_status": "ok", "route_length_km": 140.13939737179965}, "geometry": {"type": "MultiLineString", "coordinates": [[[34.1660393, 4.504813], [34.5650725, 5.7056582]]]}}, {"type": "Feature", "properties": {"road_id": 18, "geometry_status": "ok", "route_length_km": 88.77781583592292}, "geometry": {"type": "MultiLineString", "coordinates": [[[30.3227139, 5.3483937], [30.105424635886035, 5.785111806896459], [29.952475345973685, 6.060153981372665]]]}}, {"type": "Feature", "properties": {"road_id": 19, "geometry_status": "ok", "route_length_km": 53.27225553032453}, "geometry": {"type": "MultiLineString", "coordinates": [[[31.7699131, 5.1998722], [31.797714, 5.6807128]]]}}, {"type": "Feature", "properties": {"road_id": 20, "geometry_status": "ok", "route_length_km": 65.7009615215882}, "geometry": {"type": "MultiLineString", "coordinates": [[[33.49834, 9.02694], [33.923913, 8.6107065]]]}}, {"type": "Feature", "properties": {"road_id": 21, "geometry_status": "ok", "route_length_km": 51.026077598769575}, "geometry": {"type": "MultiLineString", "coordinates": [[[28.681872, 7.2751765], [29.09257692380704, 7.063972150461279]]]}}, {"type": "Feature", "properties": {"road_id": 22, "geometry_status": "ok", "route_length_km": 202.4446298345131}, "geometry": {"type": "MultiLineString", "coordinates": [[[31.753986, 5.450554], [30.7744676, 5.900151]], [[30.7744676, 5.900151], [30.3366391, 5.5159611], [30.3227139, 5.3483937]]]}}, {"type": "Feature", "properties": {"road_id": 23, "geometry_status": "ok", "route_length_km": 71.88368545015102}, "geometry": {"type": "MultiLineString", "coordinates": [[[31.753986, 5.450554], [31.5148179, 6.0548059]]]}}, {"type": "Feature", "properties": {"road_id": 24, "geometry_status": "ok", "route_length_km": 43.45985106580381}, "geometry": {"type": "MultiLineString", "coordinates": [[[32.5682244, 4.4134473], [32.299641, 4.127944]]]}}, {"type": "Feature", "properties": {"road_id": 25, "geometry_status": "ok", "route_length_km": 49.84599513566765}, "geometry": {"type": "MultiLineString", "coordinates": [[[32.8714002, 4.4616286], [33.1078963, 4.0784728]]]}}, {"type": "Feature", "properties": {"road_id": 26, "geometry_status": "ok", "route_length_km": 68.89141106686345}, "geometry": {"type": "MultiLineString", "coordinates": [[[32.5682244, 4.4134473], [32.4731135, 5.0289515]]]}}, {"type": "Feature", "properties": {"road_id": 27, "geometry_status": "ok", "route_length_km": 34.68937626170195}, "geometry": {"type": "MultiLineString", "coordinates": [[[27.9909335, 7.7001398], [27.999419, 8.013623]]]}}, {"type": "Feature", "properties": {"road_id": 28, "geometry_status": "ok", "route_length_km": 89.58528990167959}, "geometry": {"type": "MultiLineString", "coordinates": [[[27.9909335, 7.7001398], [28.681872, 7.2751765]]]}}, {"type": "Feature", "properties": {"road_id": 29, "geometry_status": "ok", "route_length_km": 181.35932965094108}, "geometry": {"type": "MultiLineString", "coordinates": [[[27.9909335, 7.7001398], [27.660785, 8.149121], [27.724499580266226, 8.072847538339927], [27.3962085, 8.7693352]], [[27.3962085, 8.7693352], [27.5065031, 8.9532983]]]}}, {"type": "Feature", "properties": {"road_id": 30, "geometry_status": "ok", "route_length_km": 82.12817124815818}, "geometry": {"type": "MultiLineString", "coordinates": [[[33.0075607, 7.0506672], [33.0029396, 7.7929337]]]}}, {"type": "Feature", "properties": {"road_id": 31, "geometry_status": "ok", "route_length_km": 118.8625555881454}, "geometry": {"type": "MultiLineString", "coordinates": [[[30.07855, 7.05454], [30.28166, 7.45025], [29.8426, 7.90323]]]}}, {"type": "Feature", "properties": {"road_id": 32, "geometry_status": "ok", "route_length_km": 88.10491623860554}, "geometry": {"type": "MultiLineString", "coordinates": [[[32.4252, 9.0841], [33.0737, 8.61709]]]}}, {"type": "Feature", "properties": {"road_id": 33, "geometry_status": "ok", "route_length_km": 63.604922855835234}, "geometry": {"type": "MultiLineString", "coordinates": [[[29.9139909, 9.1625559], [29.995299, 8.593184]]]}}, {"type": "Feature", "properties": {"road_id": 34, "geometry_status": "ok", "route_length_km": 42.22848953339663}, "geometry": {"type": "MultiLineString", "coordinates": [[[28.821029, 9.3956658], [29.1650718, 9.2254694]]]}}, {"type": "Feature", "properties": {"road_id": 35, "geometry_status": "ok", "route_length_km": 83.4942344863543}, "geometry": {"type": "MultiLineString", "coordinates": [[[29.674058, 9.477118], [29.48814, 9.356977], [29.527539722576293, 9.27468384581716], [29.336666, 9.267008]], [[29.336666, 9.267008], [29.1650718, 9.2254694]], [[29.1650718, 9.2254694], [29.150760722281603, 9.30233607075806]]]}}, {"type": "Feature", "properties": {"road_id": 36, "geometry_status": "ok", "route_length_km": 115.68327987048443}, "geometry": {"type": "MultiLineString", "coordinates": [[[34.3922514, 6.1824839], [34.0968566208686, 7.1851834664354906]]]}}, {"type": "Feature", "properties": {"road_id": 37, "geometry_status": "ok", "route_length_km": 104.29558007553626}, "geometry": {"type": "MultiLineString", "coordinates": [[[31.5614397, 6.2108741], [31.7050412, 7.1428253]]]}}, {"type": "Feature", "properties": {"road_id": 38, "geometry_status": "ok", "route_length_km": 28.41606716121197}, "geometry": {"type": "MultiLineString", "coordinates": [[[31.5614397, 6.2108741], [31.5340167, 6.4663339]]]}}, {"type": "Feature", "properties": {"road_id": 39, "geometry_status": "ok", "route_length_km": 70.52132781334524}, "geometry": {"type": "MultiLineString", "coordinates": [[[31.9994, 6.19498], [32.575944, 6.466528]]]}}, {"type": "Feature", "properties": {"road_id": 40, "geometry_status": "ok", "route_length_km": 143.33642031956632}, "geometry": {"type": "MultiLineString", "coordinates": [[[31.5340167, 6.4663339], [31.4038165, 7.1653652]], [[31.4038165, 7.1653652], [31.4117265, 7.4566724], [31.3959666, 7.7497653]]]}}, {"type": "Feature", "properties": {"road_id": 41, "geometry_status": "ok", "route_length_km": 160.30169994280013}, "geometry": {"type": "MultiLineString", "coordinates": [[[31.7050412, 7.1428253], [33.0029396, 7.7929337]]]}}, {"type": "Feature", "properties": {"road_id": 42, "geometry_status": "ok", "route_length_km": 99.41494908104862}, "geometry": {"type": "MultiLineString", "coordinates": [[[31.5959173, 4.8459246], [32.4731135, 5.0289515]]]}}, {"type": "Feature", "properties": {"road_id": 43, "geometry_status": "ok", "route_length_km": 133.15659459142407}, "geometry": {"type": "MultiLineString", "coordinates": [[[32.9623737, 10.064973], [33.20443084276657, 9.29449990948606], [33.49834, 9.02694]]]}}, {"type": "Feature", "properties": {"road_id": 44, "geometry_status": "unmatched_place", "route_length_km": null}, "geometry": null}, {"type": "Feature", "properties": {"road_id": 45, "geometry_status": "ok", "route_length_km": 75.1074909488024}, "geometry": {"type": "MultiLineString", "coordinates": [[[33.0029396, 7.7929337], [32.3927247, 8.0945809]]]}}, {"type": "Feature", "properties": {"road_id": 46, "geometry_status": "ok", "route_length_km": 39.86296568573589}, "geometry": {"type": "MultiLineString", "coordinates": [[[32.0489069, 8.1647526], [32.0618875, 8.5248787]]]}}, {"type": "Feature", "properties": {"road_id": 47, "geometry_status": "ok", "route_length_km": 198.11423159161015}, "geometry": {"type": "MultiLineString", "coordinates": [[[27.9909335, 7.7001398], [26.1951973, 7.71624]]]}}, {"type": "Feature", "properties": {"road_id": 48, "geometry_status": "ok", "route_length_km": 238.35256979953368}, "geometry": {"type": "MultiLineString", "coordinates": [[[27.9909335, 7.7001398], [27.4683476, 5.609579]]]}}, {"type": "Feature", "properties": {"road_id": 49, "geometry_status": "ok", "route_length_km": 67.89197597273893}, "geometry": {"type": "MultiLineString", "coordinates": [[[30.5021651, 6.5566444], [30.6024988, 6.7102629], [30.7730423, 7.1054884]]]}}, {"type": "Feature", "properties": {"road_id": 50, "geometry_status": "ok", "route_length_km": 45.42960569211627}, "geometry": {"type": "MultiLineString", "coordinates": [[[30.100124821135964, 6.472670041008651], [30.5021651, 6.5566444]]]}}, {"type": "Feature", "properties": {"road_id": 51, "geometry_status": "ok", "route_length_km": 70.73325883918243}, "geometry": {"type": "MultiLineString", "coordinates": [[[29.6767488, 6.8063901], [29.42539183328755, 6.93770204988967], [29.2470254, 7.0146876], [29.09257692380704, 7.063972150461279]]]}}, {"type": "Feature", "properties": {"road_id": 52, "geometry_status": "ok", "route_length_km": 59.99170969412646}, "geometry": {"type": "MultiLineString", "coordinates": [[[30.100124821135964, 6.472670041008651], [30.0377043, 6.5452923], [29.8976072, 6.6268581], [29.6767488, 6.8063901]]]}}, {"type": "Feature", "properties": {"road_id": 53, "geometry_status": "ok", "route_length_km": 72.62090392987523}, "geometry": {"type": "MultiLineString", "coordinates": [[[28.30202, 8.991486], [28.4303002, 9.093424]], [[28.4303002, 9.093424], [28.7102808, 9.2899378], [28.821029, 9.3956658]]]}}, {"type": "Feature", "properties": {"road_id": 54, "geometry_status": "ok", "route_length_km": 30.67272815840225}, "geometry": {"type": "MultiLineString", "coordinates": [[[29.674058, 9.477118], [29.57856, 9.69324]], [[29.57856, 9.69324], [29.553512, 9.726252]]]}}, {"type": "Feature", "properties": {"road_id": 55, "geometry_status": "ok", "route_length_km": 36.529330112753804}, "geometry": {"type": "MultiLineString", "coordinates": [[[29.85804763267076, 8.893915191335227], [29.995299, 8.593184]]]}}, {"type": "Feature", "properties": {"road_id": 56, "geometry_status": "ok", "route_length_km": 18.11940453798891}, "geometry": {"type": "MultiLineString", "coordinates": [[[29.7976737, 9.2481076], [29.63615402213415, 9.281023814227375]]]}}, {"type": "Feature", "properties": {"road_id": 57, "geometry_status": "ok", "route_length_km": 33.228132112602225}, "geometry": {"type": "MultiLineString", "coordinates": [[[29.63615402213415, 9.281023814227375], [29.9139909, 9.1625559]]]}}, {"type": "Feature", "properties": {"road_id": 58, "geometry_status": "ok", "route_length_km": 30.34236586600194}, "geometry": {"type": "MultiLineString", "coordinates": [[[29.9139909, 9.1625559], [29.85804763267076, 8.893915191335227]]]}}, {"type": "Feature", "properties": {"road_id": 59, "geometry_status": "ok", "route_length_km": 30.501396855614825}, "geometry": {"type": "MultiLineString", "coordinates": [[[32.9095416, 6.635056], [33.1297059, 6.8011197]]]}}, {"type": "Feature", "properties": {"road_id": 60, "geometry_status": "ok", "route_length_km": 48.50557103794616}, "geometry": {"type": "MultiLineString", "coordinates": [[[31.5614397, 6.2108741], [31.9994, 6.19498]]]}}, {"type": "Feature", "properties": {"road_id": 61, "geometry_status": "ok", "route_length_km": 32.65566082771902}, "geometry": {"type": "MultiLineString", "coordinates": [[[31.3959666, 7.7497653], [31.6919968, 7.7480429]]]}}, {"type": "Feature", "properties": {"road_id": 62, "geometry_status": "ok", "route_length_km": 34.453596216922676}, "geometry": {"type": "MultiLineString", "coordinates": [[[31.8879957, 7.9071436], [31.8342865, 8.0695589]], [[31.8342865, 8.0695589], [31.823863, 8.209632]]]}}, {"type": "Feature", "properties": {"road_id": 63, "geometry_status": "ok", "route_length_km": 35.3524348893515}, "geometry": {"type": "MultiLineString", "coordinates": [[[31.8879957, 7.9071436], [32.0297593, 8.0418191]], [[32.0297593, 8.0418191], [32.0489069, 8.1647526]]]}}, {"type": "Feature", "properties": {"road_id": 64, "geometry_status": "ok", "route_length_km": 27.873720064467474}, "geometry": {"type": "MultiLineString", "coordinates": [[[31.8879957, 7.9071436], [31.6919968, 7.7480429]]]}}, {"type": "Feature", "properties": {"road_id": 65, "geometry_status": "ok", "route_length_km": 33.058872001191645}, "geometry": {"type": "MultiLineString", "coordinates": [[[29.6278427, 6.5114833], [29.6767488, 6.8063901]]]}}, {"type": "Feature", "properties": {"road_id": 66, "geometry_status": "ok", "route_length_km": 30.73157369714398}, "geometry": {"type": "MultiLineString", "coordinates": [[[33.1297059, 6.8011197], [33.0075607, 7.0506672]]]}}, {"type": "Feature", "properties": {"road_id": 67, "geometry_status": "ok", "route_length_km": 126.80530954771596}, "geometry": {"type": "MultiLineString", "coordinates": [[[31.5148179, 6.0548059], [31.1724405, 6.1271511], [30.5021651, 6.5566444]]]}}, {"type": "Feature", "properties": {"road_id": 68, "geometry_status": "ok", "route_length_km": 157.4261955929068}, "geometry": {"type": "MultiLineString", "coordinates": [[[28.39767, 4.5680716], [28.338648459046755, 4.627605640309765], [28.2473599, 4.6412769], [28.025693, 4.9728686], [27.4683476, 5.609579]]]}}, {"type": "Feature", "properties": {"road_id": 69, "geometry_status": "ok", "route_length_km": 152.43528646194824}, "geometry": {"type": "MultiLineString", "coordinates": [[[31.5959173, 4.8459246], [30.94176729004669, 5.132539883173104], [30.448585, 5.3391035], [30.3227139, 5.3483937]]]}}, {"type": "Feature", "properties": {"road_id": 70, "geometry_status": "ok", "route_length_km": 79.33039961062399}, "geometry": {"type": "MultiLineString", "coordinates": [[[32.108345, 9.8875], [32.5466093, 10.4583543]]]}}, {"type": "Feature", "properties": {"road_id": 71, "geometry_status": "ok", "route_length_km": 62.64876381420287}, "geometry": {"type": "MultiLineString", "coordinates": [[[31.6584168, 9.5388487], [31.861945436849123, 9.69643988972825], [32.108345, 9.8875]]]}}, {"type": "Feature", "properties": {"road_id": 72, "geometry_status": "ok", "route_length_km": 32.24786840041291}, "geometry": {"type": "MultiLineString", "coordinates": [[[27.999419, 8.013623], [28.009143766497527, 8.086816677735108], [27.9789446, 8.3024209]]]}}, {"type": "Feature", "properties": {"road_id": 73, "geometry_status": "ok", "route_length_km": 15.905153744336543}, "geometry": {"type": "MultiLineString", "coordinates": [[[29.7976737, 9.2481076], [29.9139909, 9.1625559]]]}}, {"type": "Feature", "properties": {"road_id": 74, "geometry_status": "ok", "route_length_km": 41.37691249584719}, "geometry": {"type": "MultiLineString", "coordinates": [[[31.3959666, 7.7497653], [31.4097976, 8.1236035]]]}}, {"type": "Feature", "properties": {"road_id": 75, "geometry_status": "ok", "route_length_km": 79.34709208350421}, "geometry": {"type": "MultiLineString", "coordinates": [[[29.9139909, 9.1625559], [30.101628, 8.4698416]]]}}, {"type": "Feature", "properties": {"road_id": 76, "geometry_status": "ok", "route_length_km": 43.806331527023644}, "geometry": {"type": "MultiLineString", "coordinates": [[[25.6793739, 8.4694625], [25.3744, 8.21562]]]}}, {"type": "Feature", "properties": {"road_id": 77, "geometry_status": "ok", "route_length_km": 106.65101537383373}, "geometry": {"type": "MultiLineString", "coordinates": [[[30.3227139, 5.3483937], [29.71428, 5.02512], [29.4645282, 4.9143633]]]}}, {"type": "Feature", "properties": {"road_id": 78, "geometry_status": "ok", "route_length_km": 125.3260583052581}, "geometry": {"type": "MultiLineString", "coordinates": [[[32.5682244, 4.4134473], [32.8714002, 4.4616286], [33.3229668, 4.5169966], [33.58997, 4.7691017]]]}}, {"type": "Feature", "properties": {"road_id": 79, "geometry_status": "ok", "route_length_km": 38.50463400919972}, "geometry": {"type": "MultiLineString", "coordinates": [[[30.00339, 8.13576], [30.080375, 8.3902359]], [[30.080375, 8.3902359], [30.101628, 8.4698416]]]}}, {"type": "Feature", "properties": {"road_id": 80, "geometry_status": "ok", "route_length_km": 20.755283483818445}, "geometry": {"type": "MultiLineString", "coordinates": [[[30.101628, 8.4698416], [30.080375, 8.3902359], [30.1411544, 8.3040834]]]}}, {"type": "Feature", "properties": {"road_id": 81, "geometry_status": "ok", "route_length_km": 20.665881814152563}, "geometry": {"type": "MultiLineString", "coordinates": [[[29.0942416, 9.0524074], [29.1650718, 9.2254694]]]}}, {"type": "Feature", "properties": {"road_id": 82, "geometry_status": "ok", "route_length_km": 49.71077124117322}, "geometry": {"type": "MultiLineString", "coordinates": [[[28.7102808, 9.2899378], [29.0942416, 9.0524074]]]}}, {"type": "Feature", "properties": {"road_id": 83, "geometry_status": "ok", "route_length_km": 47.16772491293631}, "geometry": {"type": "MultiLineString", "coordinates": [[[31.4097976, 8.1236035], [31.8342865, 8.0695589]]]}}, {"type": "Feature", "properties": {"road_id": 84, "geometry_status": "ok", "route_length_km": 48.48041291737254}, "geometry": {"type": "MultiLineString", "coordinates": [[[33.20443084276657, 9.29449990948606], [32.9282309, 8.9528142]]]}}, {"type": "Feature", "properties": {"road_id": 85, "geometry_status": "ok", "route_length_km": 93.1524740526126}, "geometry": {"type": "MultiLineString", "coordinates": [[[32.5466093, 10.4583543], [32.9623737, 10.064973]], [[32.9623737, 10.064973], [33.22419, 10.147423]]]}}, {"type": "Feature", "properties": {"road_id": 86, "geometry_status": "ok", "route_length_km": 43.28338411522211}, "geometry": {"type": "MultiLineString", "coordinates": [[[31.162239, 9.4073225], [30.983635, 9.222645], [30.8886612, 9.3195216]]]}}, {"type": "Feature", "properties": {"road_id": 87, "geometry_status": "ok", "route_length_km": 20.986822717268737}, "geometry": {"type": "MultiLineString", "coordinates": [[[30.7665154, 9.119437], [30.638833, 9.2605]]]}}, {"type": "Feature", "properties": {"road_id": 88, "geometry_status": "ok", "route_length_km": 103.16847674483516}, "geometry": {"type": "MultiLineString", "coordinates": [[[32.0661924, 9.2971519], [32.4252, 9.0841]], [[32.4252, 9.0841], [32.9282309, 8.9528142]]]}}, {"type": "Feature", "properties": {"road_id": 89, "geometry_status": "ok", "route_length_km": 55.30121369020827}, "geometry": {"type": "MultiLineString", "coordinates": [[[28.30202, 8.991486], [28.0984675, 8.5344438]]]}}, {"type": "Feature", "properties": {"road_id": 90, "geometry_status": "ok", "route_length_km": 100.90155762052403}, "geometry": {"type": "MultiLineString", "coordinates": [[[26.1951973, 7.71624], [25.6793739, 8.4694625]]]}}, {"type": "Feature", "properties": {"road_id": 91, "geometry_status": "ok", "route_length_km": 96.31706129668142}, "geometry": {"type": "MultiLineString", "coordinates": [[[27.3962085, 8.7693352], [27.5065031, 8.9532983], [27.611928530402462, 9.144176232824428], [27.707058522367618, 9.57243962730569]]]}}, {"type": "Feature", "properties": {"road_id": 92, "geometry_status": "ok", "route_length_km": 70.28722140930549}, "geometry": {"type": "MultiLineString", "coordinates": [[[33.58997, 4.7691017], [34.1660393, 4.504813]]]}}, {"type": "Feature", "properties": {"road_id": 93, "geometry_status": "ok", "route_length_km": 37.736423670811334}, "geometry": {"type": "MultiLineString", "coordinates": [[[32.2024739, 10.4419745], [32.5466093, 10.4583543]]]}}, {"type": "Feature", "properties": {"road_id": 94, "geometry_status": "ok", "route_length_km": 68.89181654993385}, "geometry": {"type": "MultiLineString", "coordinates": [[[28.30202, 8.991486], [28.3598113, 9.1617716], [28.4405788, 9.5974896]]]}}, {"type": "Feature", "properties": {"road_id": 95, "geometry_status": "ok", "route_length_km": 28.847047323606525}, "geometry": {"type": "MultiLineString", "coordinates": [[[28.0984675, 8.5344438], [27.9789446, 8.3024209]]]}}, {"type": "Feature", "properties": {"road_id": 96, "geometry_status": "ok", "route_length_km": 28.251447345462548}, "geometry": {"type": "MultiLineString", "coordinates": [[[29.7976737, 9.2481076], [29.6761979, 9.0230181]]]}}, {"type": "Feature", "properties": {"road_id": 97, "geometry_status": "ok", "route_length_km": 48.72326678377114}, "geometry": {"type": "MultiLineString", "coordinates": [[[30.100124821135964, 6.472670041008651], [30.074859, 6.339249], [29.952475345973685, 6.060153981372665]]]}}, {"type": "Feature", "properties": {"road_id": 98, "geometry_status": "ok", "route_length_km": 34.07967449915057}, "geometry": {"type": "MultiLineString", "coordinates": [[[29.674058, 9.477118], [29.982872, 9.447218]]]}}, {"type": "Feature", "properties": {"road_id": 99, "geometry_status": "ok", "route_length_km": 38.72351539863279}, "geometry": {"type": "MultiLineString", "coordinates": [[[25.981885951833736, 8.647804284789705], [25.6793739, 8.4694625]]]}}, {"type": "Feature", "properties": {"road_id": 100, "geometry_status": "ok", "route_length_km": 60.586576467869904}, "geometry": {"type": "MultiLineString", "coordinates": [[[25.981885951833736, 8.647804284789705], [26.00505386034703, 8.446188214681003]], [[26.00505386034703, 8.446188214681003], [25.849999391552867, 8.400020561936282], [25.6793739, 8.4694625]]]}}, {"type": "Feature", "properties": {"road_id": 101, "geometry_status": "ok", "route_length_km": 52.5798590429139}, "geometry": {"type": "MultiLineString", "coordinates": [[[30.2419019, 7.7270653], [30.28166, 7.45025], [30.472528, 7.405133]]]}}, {"type": "Feature", "properties": {"road_id": 102, "geometry_status": "ok", "route_length_km": 121.91169281839306}, "geometry": {"type": "MultiLineString", "coordinates": [[[32.575944, 6.466528], [31.7050412, 7.1428253]]]}}, {"type": "Feature", "properties": {"road_id": 103, "geometry_status": "ok", "route_length_km": 41.3442353283812}, "geometry": {"type": "MultiLineString", "coordinates": [[[32.575944, 6.466528], [32.9095416, 6.635056]]]}}, {"type": "Feature", "properties": {"road_id": 104, "geometry_status": "ok", "route_length_km": 84.46359985429335}, "geometry": {"type": "MultiLineString", "coordinates": [[[33.2060535, 6.6793631], [33.9696989, 6.6611024]]]}}, {"type": "Feature", "properties": {"road_id": 105, "geometry_status": "ok", "route_length_km": 44.49393519270122}, "geometry": {"type": "MultiLineString", "coordinates": [[[34.3922514, 6.1824839], [33.99062003653451, 6.199669232652293]]]}}, {"type": "Feature", "properties": {"road_id": 106, "geometry_status": "ok", "route_length_km": 70.6366611436743}, "geometry": {"type": "MultiLineString", "coordinates": [[[34.3922514, 6.1824839], [33.9696989, 6.6611024]]]}}, {"type": "Feature", "properties": {"road_id": 107, "geometry_status": "ok", "route_length_km": 15.895972218333991}, "geometry": {"type": "MultiLineString", "coordinates": [[[33.1297059, 6.8011197], [33.2060535, 6.6793631]]]}}, {"type": "Feature", "properties": {"road_id": 108, "geometry_status": "ok", "route_length_km": 59.458681597803995}, "geometry": {"type": "MultiLineString", "coordinates": [[[29.8976072, 6.6268581], [30.103397758859725, 6.766780785244398], [30.07855, 7.05454]]]}}, {"type": "Feature", "properties": {"road_id": 109, "geometry_status": "ok", "route_length_km": 29.182692744460518}, "geometry": {"type": "MultiLineString", "coordinates": [[[32.0618875, 8.5248787], [31.9459666, 8.4334738]], [[31.9459666, 8.4334738], [31.8304793, 8.4529665]]]}}, {"type": "Feature", "properties": {"road_id": 110, "geometry_status": "ok", "route_length_km": 39.82648476538557}, "geometry": {"type": "MultiLineString", "coordinates": [[[31.9459666, 8.4334738], [31.8304793, 8.4529665]], [[31.8304793, 8.4529665], [31.823863, 8.209632]]]}}, {"type": "Feature", "properties": {"road_id": 111, "geometry_status": "ok", "route_length_km": 35.30473958340849}, "geometry": {"type": "MultiLineString", "coordinates": [[[31.6919968, 7.7480429], [31.513859, 7.4829]]]}}, {"type": "Feature", "properties": {"road_id": 112, "geometry_status": "ok", "route_length_km": 106.00864338681512}, "geometry": {"type": "MultiLineString", "coordinates": [[[27.3962085, 8.7693352], [27.9639708, 8.8908527]], [[27.9639708, 8.8908527], [28.0984675, 8.5344438]]]}}, {"type": "Feature", "properties": {"road_id": 113, "geometry_status": "ok", "route_length_km": 60.25862235420274}, "geometry": {"type": "MultiLineString", "coordinates": [[[33.58997, 4.7691017], [33.4945369, 4.2331068]]]}}, {"type": "Feature", "properties": {"road_id": 114, "geometry_status": "ok", "route_length_km": 63.55278638919888}, "geometry": {"type": "MultiLineString", "coordinates": [[[28.025693, 4.9728686], [27.902795137882435, 4.97457712182844], [27.466719, 5.0857047]]]}}, {"type": "Feature", "properties": {"road_id": 115, "geometry_status": "ok", "route_length_km": 61.496643164383514}, "geometry": {"type": "MultiLineString", "coordinates": [[[29.952475345973685, 6.060153981372665], [29.6278427, 6.5114833]]]}}, {"type": "Feature", "properties": {"road_id": 116, "geometry_status": "ok", "route_length_km": 15.017263086113081}, "geometry": {"type": "MultiLineString", "coordinates": [[[30.100124821135964, 6.472670041008651], [30.074859, 6.339249]]]}}, {"type": "Feature", "properties": {"road_id": 117, "geometry_status": "ok", "route_length_km": 17.155436722541804}, "geometry": {"type": "MultiLineString", "coordinates": [[[34.1660393, 4.504813], [34.284355, 4.40498]]]}}, {"type": "Feature", "properties": {"road_id": 118, "geometry_status": "ok", "route_length_km": 28.740119890194624}, "geometry": {"type": "MultiLineString", "coordinates": [[[29.7976737, 9.2481076], [29.674058, 9.477118]]]}}, {"type": "Feature", "properties": {"road_id": 119, "geometry_status": "ok", "route_length_km": 86.92002227350542}, "geometry": {"type": "MultiLineString", "coordinates": [[[31.7050412, 7.1428253], [31.8879957, 7.9071436]]]}}, {"type": "Feature", "properties": {"road_id": 120, "geometry_status": "ok", "route_length_km": 33.68900886324214}, "geometry": {"type": "MultiLineString", "coordinates": [[[31.8342865, 8.0695589], [31.655171606286352, 7.822797337019272]]]}}, {"type": "Feature", "properties": {"road_id": 121, "geometry_status": "ok", "route_length_km": 18.324561213770604}, "geometry": {"type": "MultiLineString", "coordinates": [[[32.2397749, 8.1595168], [32.3927247, 8.0945809]]]}}, {"type": "Feature", "properties": {"road_id": 122, "geometry_status": "ok", "route_length_km": 54.95981339767328}, "geometry": {"type": "MultiLineString", "coordinates": [[[31.8879957, 7.9071436], [32.0489069, 8.1647526]], [[32.0489069, 8.1647526], [32.1528986, 8.179364]], [[32.1528986, 8.179364], [32.2397749, 8.1595168]]]}}, {"type": "Feature", "properties": {"road_id": 123, "geometry_status": "ok", "route_length_km": 56.1331144950754}, "geometry": {"type": "MultiLineString", "coordinates": [[[34.5650725, 5.7056582], [34.3922514, 6.1824839]]]}}, {"type": "Feature", "properties": {"road_id": 124, "geometry_status": "ok", "route_length_km": 118.35932993737508}, "geometry": {"type": "MultiLineString", "coordinates": [[[33.58997, 4.7691017], [33.9730397, 5.7670781]]]}}, {"type": "Feature", "properties": {"road_id": 125, "geometry_status": "ok", "route_length_km": 99.02221670245108}, "geometry": {"type": "MultiLineString", "coordinates": [[[29.6767488, 6.8063901], [29.7205294, 7.7007016]]]}}, {"type": "Feature", "properties": {"road_id": 126, "geometry_status": "ok", "route_length_km": 51.12112214161251}, "geometry": {"type": "MultiLineString", "coordinates": [[[33.99062003653451, 6.199669232652293], [33.9696989, 6.6611024]]]}}, {"type": "Feature", "properties": {"road_id": 127, "geometry_status": "ok", "route_length_km": 17.976271801447357}, "geometry": {"type": "MultiLineString", "coordinates": [[[29.995299, 8.593184], [30.101628, 8.4698416]]]}}, {"type": "Feature", "properties": {"road_id": 128, "geometry_status": "ok", "route_length_km": 24.271264971404456}, "geometry": {"type": "MultiLineString", "coordinates": [[[30.3, 8.155], [30.201707628273248, 8.266435808048447]], [[30.201707628273248, 8.266435808048447], [30.1411544, 8.3040834]]]}}, {"type": "Feature", "properties": {"road_id": 129, "geometry_status": "ok", "route_length_km": 52.06214546669881}, "geometry": {"type": "MultiLineString", "coordinates": [[[31.0755257, 4.3396843], [30.6756882, 4.0941656]]]}}, {"type": "Feature", "properties": {"road_id": 130, "geometry_status": "ok", "route_length_km": 37.03915667367992}, "geometry": {"type": "MultiLineString", "coordinates": [[[33.49834, 9.02694], [33.6780942, 9.3101181]]]}}, {"type": "Feature", "properties": {"road_id": 131, "geometry_status": "ok", "route_length_km": 43.13293901228281}, "geometry": {"type": "MultiLineString", "coordinates": [[[31.7050412, 7.1428253], [31.513859, 7.4829]]]}}, {"type": "Feature", "properties": {"road_id": 132, "geometry_status": "ok", "route_length_km": 33.74436051433074}, "geometry": {"type": "MultiLineString", "coordinates": [[[31.4097976, 8.1236035], [31.329687, 8.4180563]]]}}, {"type": "Feature", "properties": {"road_id": 133, "geometry_status": "ok", "route_length_km": 126.32237817765395}, "geometry": {"type": "MultiLineString", "coordinates": [[[29.150760722281603, 9.30233607075806], [29.57856, 9.69324]], [[29.1650718, 9.2254694], [29.674058, 9.477118]]]}}, {"type": "Feature", "properties": {"road_id": 134, "geometry_status": "ok", "route_length_km": 33.914162530875146}, "geometry": {"type": "MultiLineString", "coordinates": [[[29.9816678, 9.9190338], [30.285761, 9.97444]]]}}, {"type": "Feature", "properties": {"road_id": 135, "geometry_status": "ok", "route_length_km": 43.251025695348304}, "geometry": {"type": "MultiLineString", "coordinates": [[[32.4731135, 5.0289515], [32.7581757, 4.7620743]]]}}, {"type": "Feature", "properties": {"road_id": 136, "geometry_status": "ok", "route_length_km": 33.36618599601945}, "geometry": {"type": "MultiLineString", "coordinates": [[[31.4038165, 7.1653652], [31.7050412, 7.1428253]]]}}, {"type": "Feature", "properties": {"road_id": 137, "geometry_status": "ok", "route_length_km": 11.640753524985097}, "geometry": {"type": "MultiLineString", "coordinates": [[[31.4117265, 7.4566724], [31.513859, 7.4829]]]}}, {"type": "Feature", "properties": {"road_id": 138, "geometry_status": "ok", "route_length_km": 51.59425233185122}, "geometry": {"type": "MultiLineString", "coordinates": [[[29.553512, 9.726252], [29.9816678, 9.9190338]]]}}, {"type": "Feature", "properties": {"road_id": 139, "geometry_status": "ok", "route_length_km": 6.35146650975666}, "geometry": {"type": "MultiLineString", "coordinates": [[[31.4038165, 7.1653652], [31.35167, 7.14117]]]}}, {"type": "Feature", "properties": {"road_id": 140, "geometry_status": "ok", "route_length_km": 18.70433547474762}, "geometry": {"type": "MultiLineString", "coordinates": [[[33.923913, 8.6107065], [34.0246349, 8.474665]]]}}]}