{"type": "FeatureCollection", "crs": {"type": "name", "properties": {"name": "urn:ogc:def:crs:OGC:1.3:CRS84"}}, "features": [{"type": "Feature", "properties": {"source": 1, "target": 2, "source_name": "Abiemnhom", "target_name": "Abyei", "weight": 3}, "geometry": {"type": "LineString", "coordinates": [[28.821029, 9.3956658], [28.4405788, 9.5974896]]}}, {"type": "Feature", "properties": {"source": 1, "target": 82, "source_name": "Abiemnhom", "target_name": "Mayom", "weight": 1}, "geometry": {"type": "LineString", "coordinates": [[28.821029, 9.3956658], [29.1650718, 9.2254694]]}}, {"type": "Feature", "properties": {"source": 1, "target": 127, "source_name": "Abiemnhom", "target_name": "Turalei", "weight": 3}, "geometry": {"type": "LineString", "coordinates": [[28.821029, 9.3956658], [28.4303002, 9.093424]]}}, {"type": "Feature", "properties": {"source": 2, "target": 134, "source_name": "Abyei", "target_name": "Wunrok", "weight": 2}, "geometry": {"type": "LineString", "coordinates": [[28.4405788, 9.5974896], [28.30202, 8.991486]]}}, {"type": "Feature", "properties": {"source": 3, "target": 41, "source_name": "Adar", "target_name": "Jemaam", "weight": 1}, "geometry": {"type": "LineString", "coordinates": [[32.9623737, 10.064973], [33.22419, 10.147423]]}}, {"type": "Feature", "properties": {"source": 3, "target": 80, "source_name": "Adar", "target_name": "Mathiang", "weight": 3}, "geometry": {"type": "LineString", "coordinates": [[32.9623737, 10.064973], [33.49834, 9.02694]]}}, {"type": "Feature", "properties": {"source": 3, "target": 103, "source_name": "Adar", "target_name": "Paloich", "weight": 1}, "geometry": {"type": "LineString", "coordinates": [[32.9623737, 10.064973], [32.5466093, 10.4583543]]}}, {"type": "Feature", "properties": {"source": 4, "target": 111, "source_name": "Adok", "target_name": "Piling", "weight": 2}, "geometry": {"type": "LineString", "coordinates": [[30.3, 8.155], [30.201707628273248, 8.266435808048447]]}}, {"type": "Feature", "properties": {"source": 5, "target": 13, "source_name": "Aduel", "target_name": "Amok Piny", "weight": 2}, "geometry": {"type": "LineString", "coordinates": [[29.8976072, 6.6268581], [30.07855, 7.05454]]}}, {"type": "Feature", "properties": {"source": 6, "target": 74, "source_name": "Ajak Kuac", "target_name": "Mankien", "weight": 3}, "geometry": {"type": "LineString", "coordinates": [[28.7102808, 9.2899378], [29.0942416, 9.0524074]]}}, {"type": "Feature", "properties": {"source": 7, "target": 105, "source_name": "Ajuong Thok", "target_name": "Pariang", "weight": 1}, "geometry": {"type": "LineString", "coordinates": [[30.285761, 9.97444], [29.9816678, 9.9190338]]}}, {"type": "Feature", "properties": {"source": 8, "target": 31, "source_name": "Akobo", "target_name": "Gadiang", "weight": 3}, "geometry": {"type": "LineString", "coordinates": [[33.0029396, 7.7929337], [31.7050412, 7.1428253]]}}, {"type": "Feature", "properties": {"source": 8, "target": 44, "source_name": "Akobo", "target_name": "Kaikuny", "weight": 3}, "geometry": {"type": "LineString", "coordinates": [[33.0029396, 7.7929337], [32.3927247, 8.0945809]]}}, {"type": "Feature", "properties": {"source": 8, "target": 65, "source_name": "Akobo", "target_name": "Likuangole", "weight": 3}, "geometry": {"type": "LineString", "coordinates": [[33.0029396, 7.7929337], [33.0075607, 7.0506672]]}}, {"type": "Feature", "properties": {"source": 9, "target": 14, "source_name": "Akuem", "target_name": "Aweil", "weight": 1}, "geometry": {"type": "LineString", "coordinates": [[27.5065031, 8.9532983], [27.3962085, 8.7693352]]}}, {"type": "Feature", "properties": {"source": 10, "target": 14, "source_name": "Akon", "target_name": "Aweil", "weight": 2}, "geometry": {"type": "LineString", "coordinates": [[27.9639708, 8.8908527], [27.3962085, 8.7693352]]}}, {"type": "Feature", "properties": {"source": 10, "target": 34, "source_name": "Akon", "target_name": "Gogrial", "weight": 2}, "geometry": {"type": "LineString", "coordinates": [[27.9639708, 8.8908527], [28.0984675, 8.5344438]]}}, {"type": "Feature", "properties": {"source": 11, "target": 17, "source_name": "Akwot", "target_name": "Baliet", "weight": 3}, "geometry": {"type": "LineString", "coordinates": [[32.4252, 9.0841], [32.0661924, 9.2971519]]}}, {"type": "Feature", "properties": {"source": 11, "target": 51, "source_name": "Akwot", "target_name": "Kiech Kon", "weight": 3}, "geometry": {"type": "LineString", "coordinates": [[32.4252, 9.0841], [32.9282309, 8.9528142]]}}, {"type": "Feature", "properties": {"source": 11, "target": 92, "source_name": "Akwot", "target_name": "Nasser", "weight": 3}, "geometry": {"type": "LineString", "coordinates": [[32.4252, 9.0841], [33.0737, 8.61709]]}}, {"type": "Feature", "properties": {"source": 12, "target": 77, "source_name": "Aluakluak", "target_name": "Mapuordit", "weight": 2}, "geometry": {"type": "LineString", "coordinates": [[30.100124821135964, 6.472670041008651], [30.074859, 6.339249]]}}, {"type": "Feature", "properties": {"source": 12, "target": 89, "source_name": "Aluakluak", "target_name": "Mvolo", "weight": 2}, "geometry": {"type": "LineString", "coordinates": [[30.100124821135964, 6.472670041008651], [29.9567643, 6.0607554]]}}, {"type": "Feature", "properties": {"source": 12, "target": 117, "source_name": "Aluakluak", "target_name": "Rumbek", "weight": 2}, "geometry": {"type": "LineString", "coordinates": [[30.100124821135964, 6.472670041008651], [29.6767488, 6.8063901]]}}, {"type": "Feature", "properties": {"source": 12, "target": 138, "source_name": "Aluakluak", "target_name": "Yirol", "weight": 2}, "geometry": {"type": "LineString", "coordinates": [[30.100124821135964, 6.472670041008651], [30.5021651, 6.5566444]]}}, {"type": "Feature", "properties": {"source": 13, "target": 68, "source_name": "Amok Piny", "target_name": "Madol", "weight": 3}, "geometry": {"type": "LineString", "coordinates": [[30.07855, 7.05454], [29.8426, 7.90323]]}}, {"type": "Feature", "properties": {"source": 14, "target": 35, "source_name": "Aweil", "target_name": "Gossinga", "weight": 2}, "geometry": {"type": "LineString", "coordinates": [[27.3962085, 8.7693352], [25.981885951833736, 8.647804284789705]]}}, {"type": "Feature", "properties": {"source": 14, "target": 132, "source_name": "Aweil", "target_name": "Wau", "weight": 1}, "geometry": {"type": "LineString", "coordinates": [[27.3962085, 8.7693352], [27.9909335, 7.7001398]]}}, {"type": "Feature", "properties": {"source": 14, "target": 139, "source_name": "Aweil", "target_name": "Yith Pabol", "weight": 3}, "geometry": {"type": "LineString", "coordinates": [[27.3962085, 8.7693352], [27.707058522367618, 9.57243962730569]]}}, {"type": "Feature", "properties": {"source": 15, "target": 28, "source_name": "Ayod", "target_name": "Duk Padiet", "weight": 3}, "geometry": {"type": "LineString", "coordinates": [[31.4097976, 8.1236035], [31.3959666, 7.7497653]]}}, {"type": "Feature", "properties": {"source": 15, "target": 86, "source_name": "Ayod", "target_name": "Mogok", "weight": 3}, "geometry": {"type": "LineString", "coordinates": [[31.4097976, 8.1236035], [31.329687, 8.4180563]]}}, {"type": "Feature", "properties": {"source": 15, "target": 106, "source_name": "Ayod", "target_name": "Pathai", "weight": 3}, "geometry": {"type": "LineString", "coordinates": [[31.4097976, 8.1236035], [31.8342865, 8.0695589]]}}, {"type": "Feature", "properties": {"source": 16, "target": 20, "source_name": "Baidit", "target_name": "Bor", "weight": 2}, "geometry": {"type": "LineString", "coordinates": [[31.5340167, 6.4663339], [31.5614397, 6.2108741]]}}, {"type": "Feature", "properties": {"source": 16, "target": 67, "source_name": "Baidit", "target_name": "Mabior", "weight": 3}, "geometry": {"type": "LineString", "coordinates": [[31.5340167, 6.4663339], [31.4038165, 7.1653652]]}}, {"type": "Feature", "properties": {"source": 17, "target": 71, "source_name": "Baliet", "target_name": "Malakal", "weight": 3}, "geometry": {"type": "LineString", "coordinates": [[32.0661924, 9.2971519], [31.6584168, 9.5388487]]}}, {"type": "Feature", "properties": {"source": 18, "target": 25, "source_name": "Bentiu", "target_name": "Dhorbor", "weight": 3}, "geometry": {"type": "LineString", "coordinates": [[29.7976737, 9.2481076], [29.52674, 9.27999]]}}, {"type": "Feature", "properties": {"source": 18, "target": 36, "source_name": "Bentiu", "target_name": "Guit", "weight": 2}, "geometry": {"type": "LineString", "coordinates": [[29.7976737, 9.2481076], [29.9139909, 9.1625559]]}}, {"type": "Feature", "properties": {"source": 18, "target": 52, "source_name": "Bentiu", "target_name": "Kilo 30", "weight": 3}, "geometry": {"type": "LineString", "coordinates": [[29.7976737, 9.2481076], [29.674058, 9.477118]]}}, {"type": "Feature", "properties": {"source": 18, "target": 94, "source_name": "Bentiu", "target_name": "Nhialdiu", "weight": 3}, "geometry": {"type": "LineString", "coordinates": [[29.7976737, 9.2481076], [29.6761979, 9.0230181]]}}, {"type": "Feature", "properties": {"source": 19, "target": 58, "source_name": "Boma", "target_name": "Kuron", "weight": 3}, "geometry": {"type": "LineString", "coordinates": [[34.3922514, 6.1824839], [34.5650725, 5.7056582]]}}, {"type": "Feature", "properties": {"source": 19, "target": 59, "source_name": "Boma", "target_name": "Labarab", "weight": 3}, "geometry": {"type": "LineString", "coordinates": [[34.3922514, 6.1824839], [33.9696989, 6.6611024]]}}, {"type": "Feature", "properties": {"source": 19, "target": 79, "source_name": "Boma", "target_name": "Maruwa", "weight": 3}, "geometry": {"type": "LineString", "coordinates": [[34.3922514, 6.1824839], [33.99062003653451, 6.199669232652293]]}}, {"type": "Feature", "properties": {"source": 19, "target": 112, "source_name": "Boma", "target_name": "Pochala", "weight": 3}, "geometry": {"type": "LineString", "coordinates": [[34.3922514, 6.1824839], [34.0968566208686, 7.1851834664354906]]}}, {"type": "Feature", "properties": {"source": 20, "target": 31, "source_name": "Bor", "target_name": "Gadiang", "weight": 3}, "geometry": {"type": "LineString", "coordinates": [[31.5614397, 6.2108741], [31.7050412, 7.1428253]]}}, {"type": "Feature", "properties": {"source": 20, "target": 33, "source_name": "Bor", "target_name": "Gemeiza", "weight": 3}, "geometry": {"type": "LineString", "coordinates": [[31.5614397, 6.2108741], [31.797714, 5.6807128]]}}, {"type": "Feature", "properties": {"source": 20, "target": 108, "source_name": "Bor", "target_name": "Pengko", "weight": 3}, "geometry": {"type": "LineString", "coordinates": [[31.5614397, 6.2108741], [31.9994, 6.19498]]}}, {"type": "Feature", "properties": {"source": 21, "target": 114, "source_name": "Chandoy/Dolo2", "target_name": "Raja", "weight": 1}, "geometry": {"type": "LineString", "coordinates": [[25.3744, 8.21562], [25.6793739, 8.4694625]]}}, {"type": "Feature", "properties": {"source": 22, "target": 47, "source_name": "Chukudum", "target_name": "Kapoeta", "weight": 1}, "geometry": {"type": "LineString", "coordinates": [[33.4945369, 4.2331068], [33.58997, 4.7691017]]}}, {"type": "Feature", "properties": {"source": 23, "target": 76, "source_name": "Dablual", "target_name": "Maper (Lakes)", "weight": 3}, "geometry": {"type": "LineString", "coordinates": [[30.0152277, 8.3122575], [29.7205294, 7.7007016]]}}, {"type": "Feature", "properties": {"source": 24, "target": 114, "source_name": "Deim Zubeir", "target_name": "Raja", "weight": 2}, "geometry": {"type": "LineString", "coordinates": [[26.1951973, 7.71624], [25.6793739, 8.4694625]]}}, {"type": "Feature", "properties": {"source": 24, "target": 132, "source_name": "Deim Zubeir", "target_name": "Wau", "weight": 2}, "geometry": {"type": "LineString", "coordinates": [[26.1951973, 7.71624], [27.9909335, 7.7001398]]}}, {"type": "Feature", "properties": {"source": 25, "target": 36, "source_name": "Dhorbor", "target_name": "Guit", "weight": 3}, "geometry": {"type": "LineString", "coordinates": [[29.52674, 9.27999], [29.9139909, 9.1625559]]}}, {"type": "Feature", "properties": {"source": 26, "target": 29, "source_name": "Diabio", "target_name": "Ezo", "weight": 1}, "geometry": {"type": "LineString", "coordinates": [[28.025693, 4.9728686], [27.466719, 5.0857047]]}}, {"type": "Feature", "properties": {"source": 27, "target": 36, "source_name": "Ding Ding", "target_name": "Guit", "weight": 3}, "geometry": {"type": "LineString", "coordinates": [[29.85804763267076, 8.893915191335227], [29.9139909, 9.1625559]]}}, {"type": "Feature", "properties": {"source": 27, "target": 53, "source_name": "Ding Ding", "target_name": "Koch", "weight": 3}, "geometry": {"type": "LineString", "coordinates": [[29.85804763267076, 8.893915191335227], [29.995299, 8.593184]]}}, {"type": "Feature", "properties": {"source": 28, "target": 67, "source_name": "Duk Padiet", "target_name": "Mabior", "weight": 3}, "geometry": {"type": "LineString", "coordinates": [[31.3959666, 7.7497653], [31.4038165, 7.1653652]]}}, {"type": "Feature", "properties": {"source": 28, "target": 102, "source_name": "Duk Padiet", "target_name": "Pajut", "weight": 3}, "geometry": {"type": "LineString", "coordinates": [[31.3959666, 7.7497653], [31.6919968, 7.7480429]]}}, {"type": "Feature", "properties": {"source": 30, "target": 106, "source_name": "Fatuet", "target_name": "Pathai", "weight": 3}, "geometry": {"type": "LineString", "coordinates": [[31.655171606286352, 7.822797337019272], [31.8342865, 8.0695589]]}}, {"type": "Feature", "properties": {"source": 31, "target": 67, "source_name": "Gadiang", "target_name": "Mabior", "weight": 3}, "geometry": {"type": "LineString", "coordinates": [[31.7050412, 7.1428253], [31.4038165, 7.1653652]]}}, {"type": "Feature", "properties": {"source": 31, "target": 75, "source_name": "Gadiang", "target_name": "Manyabol", "weight": 3}, "geometry": {"type": "LineString", "coordinates": [[31.7050412, 7.1428253], [32.575944, 6.466528]]}}, {"type": "Feature", "properties": {"source": 31, "target": 107, "source_name": "Gadiang", "target_name": "Payuel", "weight": 3}, "geometry": {"type": "LineString", "coordinates": [[31.7050412, 7.1428253], [31.5521918, 6.4426988]]}}, {"type": "Feature", "properties": {"source": 31, "target": 140, "source_name": "Gadiang", "target_name": "Yuai", "weight": 3}, "geometry": {"type": "LineString", "coordinates": [[31.7050412, 7.1428253], [31.8879957, 7.9071436]]}}, {"type": "Feature", "properties": {"source": 32, "target": 96, "source_name": "Ganyiel", "target_name": "Nyal", "weight": 3}, "geometry": {"type": "LineString", "coordinates": [[30.472528, 7.405133], [30.2419019, 7.7270653]]}}, {"type": "Feature", "properties": {"source": 33, "target": 73, "source_name": "Gemeiza", "target_name": "Mangalla", "weight": 1}, "geometry": {"type": "LineString", "coordinates": [[31.797714, 5.6807128], [31.7699131, 5.1998722]]}}, {"type": "Feature", "properties": {"source": 34, "target": 56, "source_name": "Gogrial", "target_name": "Kuajok", "weight": 2}, "geometry": {"type": "LineString", "coordinates": [[28.0984675, 8.5344438], [27.9789446, 8.3024209]]}}, {"type": "Feature", "properties": {"source": 34, "target": 134, "source_name": "Gogrial", "target_name": "Wunrok", "weight": 2}, "geometry": {"type": "LineString", "coordinates": [[28.0984675, 8.5344438], [28.30202, 8.991486]]}}, {"type": "Feature", "properties": {"source": 35, "target": 46, "source_name": "Gossinga", "target_name": "Kapalala", "weight": 2}, "geometry": {"type": "LineString", "coordinates": [[25.981885951833736, 8.647804284789705], [26.00505386034703, 8.446188214681003]]}}, {"type": "Feature", "properties": {"source": 35, "target": 114, "source_name": "Gossinga", "target_name": "Raja", "weight": 3}, "geometry": {"type": "LineString", "coordinates": [[25.981885951833736, 8.647804284789705], [25.6793739, 8.4694625]]}}, {"type": "Feature", "properties": {"source": 36, "target": 53, "source_name": "Guit", "target_name": "Koch", "weight": 3}, "geometry": {"type": "LineString", "coordinates": [[29.9139909, 9.1625559], [29.995299, 8.593184]]}}, {"type": "Feature", "properties": {"source": 36, "target": 85, "source_name": "Guit", "target_name": "Mirmir", "weight": 3}, "geometry": {"type": "LineString", "coordinates": [[29.9139909, 9.1625559], [30.101628, 8.4698416]]}}, {"type": "Feature", "properties": {"source": 37, "target": 75, "source_name": "Gumuruk", "target_name": "Manyabol", "weight": 3}, "geometry": {"type": "LineString", "coordinates": [[32.9095416, 6.635056], [32.575944, 6.466528]]}}, {"type": "Feature", "properties": {"source": 37, "target": 109, "source_name": "Gumuruk", "target_name": "Pibor", "weight": 3}, "geometry": {"type": "LineString", "coordinates": [[32.9095416, 6.635056], [33.1297059, 6.8011197]]}}, {"type": "Feature", "properties": {"source": 38, "target": 39, "source_name": "Hiyala", "target_name": "Ikotos", "weight": 1}, "geometry": {"type": "LineString", "coordinates": [[32.8714002, 4.4616286], [33.1078963, 4.0784728]]}}, {"type": "Feature", "properties": {"source": 40, "target": 60, "source_name": "Imehejek", "target_name": "Lafon", "weight": 2}, "geometry": {"type": "LineString", "coordinates": [[32.7581757, 4.7620743], [32.4731135, 5.0289515]]}}, {"type": "Feature", "properties": {"source": 41, "target": 66, "source_name": "Jemaam", "target_name": "Maban", "weight": 1}, "geometry": {"type": "LineString", "coordinates": [[33.22419, 10.147423], [33.7259061, 9.9633955]]}}, {"type": "Feature", "properties": {"source": 42, "target": 45, "source_name": "Juba", "target_name": "Kajo Keji", "weight": 1}, "geometry": {"type": "LineString", "coordinates": [[31.5959173, 4.8459246], [31.6649919, 3.8732643]]}}, {"type": "Feature", "properties": {"source": 42, "target": 60, "source_name": "Juba", "target_name": "Lafon", "weight": 3}, "geometry": {"type": "LineString", "coordinates": [[31.5959173, 4.8459246], [32.4731135, 5.0289515]]}}, {"type": "Feature", "properties": {"source": 42, "target": 61, "source_name": "Juba", "target_name": "Lainya", "weight": 1}, "geometry": {"type": "LineString", "coordinates": [[31.5959173, 4.8459246], [31.0755257, 4.3396843]]}}, {"type": "Feature", "properties": {"source": 42, "target": 73, "source_name": "Juba", "target_name": "Mangalla", "weight": 1}, "geometry": {"type": "LineString", "coordinates": [[31.5959173, 4.8459246], [31.7699131, 5.1998722]]}}, {"type": "Feature", "properties": {"source": 42, "target": 88, "source_name": "Juba", "target_name": "Mundri", "weight": 1}, "geometry": {"type": "LineString", "coordinates": [[31.5959173, 4.8459246], [30.3227139, 5.3483937]]}}, {"type": "Feature", "properties": {"source": 42, "target": 95, "source_name": "Juba", "target_name": "Nimule", "weight": 1}, "geometry": {"type": "LineString", "coordinates": [[31.5959173, 4.8459246], [32.0601419, 3.5969348]]}}, {"type": "Feature", "properties": {"source": 42, "target": 122, "source_name": "Juba", "target_name": "Terakeka", "weight": 3}, "geometry": {"type": "LineString", "coordinates": [[31.5959173, 4.8459246], [31.753986, 5.450554]]}}, {"type": "Feature", "properties": {"source": 42, "target": 125, "source_name": "Juba", "target_name": "Torit", "weight": 2}, "geometry": {"type": "LineString", "coordinates": [[31.5959173, 4.8459246], [32.5682244, 4.4134473]]}}, {"type": "Feature", "properties": {"source": 43, "target": 82, "source_name": "Kaikang", "target_name": "Mayom", "weight": 3}, "geometry": {"type": "LineString", "coordinates": [[29.150760722281603, 9.30233607075806], [29.1650718, 9.2254694]]}}, {"type": "Feature", "properties": {"source": 43, "target": 116, "source_name": "Kaikang", "target_name": "Roriak", "weight": 1}, "geometry": {"type": "LineString", "coordinates": [[29.150760722281603, 9.30233607075806], [29.57856, 9.69324]]}}, {"type": "Feature", "properties": {"source": 44, "target": 131, "source_name": "Kaikuny", "target_name": "Walgak", "weight": 3}, "geometry": {"type": "LineString", "coordinates": [[32.3927247, 8.0945809], [32.2397749, 8.1595168]]}}, {"type": "Feature", "properties": {"source": 46, "target": 114, "source_name": "Kapalala", "target_name": "Raja", "weight": 2}, "geometry": {"type": "LineString", "coordinates": [[26.00505386034703, 8.446188214681003], [25.6793739, 8.4694625]]}}, {"type": "Feature", "properties": {"source": 47, "target": 49, "source_name": "Kapoeta", "target_name": "Kassangor", "weight": 2}, "geometry": {"type": "LineString", "coordinates": [[33.58997, 4.7691017], [33.9730397, 5.7670781]]}}, {"type": "Feature", "properties": {"source": 47, "target": 91, "source_name": "Kapoeta", "target_name": "Narus", "weight": 1}, "geometry": {"type": "LineString", "coordinates": [[33.58997, 4.7691017], [34.1660393, 4.504813]]}}, {"type": "Feature", "properties": {"source": 47, "target": 125, "source_name": "Kapoeta", "target_name": "Torit", "weight": 2}, "geometry": {"type": "LineString", "coordinates": [[33.58997, 4.7691017], [32.5682244, 4.4134473]]}}, {"type": "Feature", "properties": {"source": 48, "target": 99, "source_name": "Karam", "target_name": "Pading", "weight": 3}, "geometry": {"type": "LineString", "coordinates": [[31.823863, 8.209632], [31.8304793, 8.4529665]]}}, {"type": "Feature", "properties": {"source": 48, "target": 106, "source_name": "Karam", "target_name": "Pathai", "weight": 3}, "geometry": {"type": "LineString", "coordinates": [[31.823863, 8.209632], [31.8342865, 8.0695589]]}}, {"type": "Feature", "properties": {"source": 50, "target": 101, "source_name": "Keew", "target_name": "Paguir", "weight": 3}, "geometry": {"type": "LineString", "coordinates": [[30.638833, 9.2605], [30.7665154, 9.119437]]}}, {"type": "Feature", "properties": {"source": 51, "target": 98, "source_name": "Kiech Kon", "target_name": "Nyandit", "weight": 3}, "geometry": {"type": "LineString", "coordinates": [[32.9282309, 8.9528142], [32.975167, 7.62]]}}, {"type": "Feature", "properties": {"source": 52, "target": 72, "source_name": "Kilo 30", "target_name": "Manga Port", "weight": 1}, "geometry": {"type": "LineString", "coordinates": [[29.674058, 9.477118], [29.982872, 9.447218]]}}, {"type": "Feature", "properties": {"source": 52, "target": 82, "source_name": "Kilo 30", "target_name": "Mayom", "weight": 1}, "geometry": {"type": "LineString", "coordinates": [[29.674058, 9.477118], [29.1650718, 9.2254694]]}}, {"type": "Feature", "properties": {"source": 52, "target": 105, "source_name": "Kilo 30", "target_name": "Pariang", "weight": 1}, "geometry": {"type": "LineString", "coordinates": [[29.674058, 9.477118], [29.9816678, 9.9190338]]}}, {"type": "Feature", "properties": {"source": 52, "target": 116, "source_name": "Kilo 30", "target_name": "Roriak", "weight": 1}, "geometry": {"type": "LineString", "coordinates": [[29.674058, 9.477118], [29.57856, 9.69324]]}}, {"type": "Feature", "properties": {"source": 52, "target": 126, "source_name": "Kilo 30", "target_name": "Tumor", "weight": 3}, "geometry": {"type": "LineString", "coordinates": [[29.674058, 9.477118], [29.336666, 9.267008]]}}, {"type": "Feature", "properties": {"source": 53, "target": 85, "source_name": "Koch", "target_name": "Mirmir", "weight": 3}, "geometry": {"type": "LineString", "coordinates": [[29.995299, 8.593184], [30.101628, 8.4698416]]}}, {"type": "Feature", "properties": {"source": 54, "target": 71, "source_name": "Kodok", "target_name": "Malakal", "weight": 3}, "geometry": {"type": "LineString", "coordinates": [[32.108345, 9.8875], [31.6584168, 9.5388487]]}}, {"type": "Feature", "properties": {"source": 54, "target": 103, "source_name": "Kodok", "target_name": "Paloich", "weight": 3}, "geometry": {"type": "LineString", "coordinates": [[32.108345, 9.8875], [32.5466093, 10.4583543]]}}, {"type": "Feature", "properties": {"source": 55, "target": 67, "source_name": "Kongor", "target_name": "Mabior", "weight": 3}, "geometry": {"type": "LineString", "coordinates": [[31.35167, 7.14117], [31.4038165, 7.1653652]]}}, {"type": "Feature", "properties": {"source": 56, "target": 123, "source_name": "Kuajok", "target_name": "Thar Kueng", "weight": 2}, "geometry": {"type": "LineString", "coordinates": [[27.9789446, 8.3024209], [27.999419, 8.013623]]}}, {"type": "Feature", "properties": {"source": 57, "target": 93, "source_name": "Kuernyang", "target_name": "New Fangak", "weight": 3}, "geometry": {"type": "LineString", "coordinates": [[30.8886612, 9.3195216], [31.162239, 9.4073225]]}}, {"type": "Feature", "properties": {"source": 58, "target": 91, "source_name": "Kuron", "target_name": "Narus", "weight": 2}, "geometry": {"type": "LineString", "coordinates": [[34.5650725, 5.7056582], [34.1660393, 4.504813]]}}, {"type": "Feature", "properties": {"source": 59, "target": 79, "source_name": "Labarab", "target_name": "Maruwa", "weight": 3}, "geometry": {"type": "LineString", "coordinates": [[33.9696989, 6.6611024], [33.99062003653451, 6.199669232652293]]}}, {"type": "Feature", "properties": {"source": 59, "target": 129, "source_name": "Labarab", "target_name": "Vertet", "weight": 3}, "geometry": {"type": "LineString", "coordinates": [[33.9696989, 6.6611024], [33.2060535, 6.6793631]]}}, {"type": "Feature", "properties": {"source": 60, "target": 125, "source_name": "Lafon", "target_name": "Torit", "weight": 2}, "geometry": {"type": "LineString", "coordinates": [[32.4731135, 5.0289515], [32.5682244, 4.4134473]]}}, {"type": "Feature", "properties": {"source": 61, "target": 136, "source_name": "Lainya", "target_name": "Yei", "weight": 1}, "geometry": {"type": "LineString", "coordinates": [[31.0755257, 4.3396843], [30.6756882, 4.0941656]]}}, {"type": "Feature", "properties": {"source": 62, "target": 117, "source_name": "Langdit", "target_name": "Rumbek", "weight": 1}, "geometry": {"type": "LineString", "coordinates": [[29.09257692380704, 7.063972150461279], [29.6767488, 6.8063901]]}}, {"type": "Feature", "properties": {"source": 62, "target": 124, "source_name": "Langdit", "target_name": "Tonj", "weight": 1}, "geometry": {"type": "LineString", "coordinates": [[29.09257692380704, 7.063972150461279], [28.681872, 7.2751765]]}}, {"type": "Feature", "properties": {"source": 63, "target": 87, "source_name": "Lankien", "target_name": "Motot", "weight": 3}, "geometry": {"type": "LineString", "coordinates": [[32.0618875, 8.5248787], [32.0489069, 8.1647526]]}}, {"type": "Feature", "properties": {"source": 63, "target": 97, "source_name": "Lankien", "target_name": "Nyambor", "weight": 3}, "geometry": {"type": "LineString", "coordinates": [[32.0618875, 8.5248787], [31.9459666, 8.4334738]]}}, {"type": "Feature", "properties": {"source": 64, "target": 85, "source_name": "Leer", "target_name": "Mirmir", "weight": 2}, "geometry": {"type": "LineString", "coordinates": [[30.1411544, 8.3040834], [30.101628, 8.4698416]]}}, {"type": "Feature", "properties": {"source": 64, "target": 111, "source_name": "Leer", "target_name": "Piling", "weight": 2}, "geometry": {"type": "LineString", "coordinates": [[30.1411544, 8.3040834], [30.201707628273248, 8.266435808048447]]}}, {"type": "Feature", "properties": {"source": 65, "target": 109, "source_name": "Likuangole", "target_name": "Pibor", "weight": 3}, "geometry": {"type": "LineString", "coordinates": [[33.0075607, 7.0506672], [33.1297059, 6.8011197]]}}, {"type": "Feature", "properties": {"source": 69, "target": 125, "source_name": "Magwi", "target_name": "Torit", "weight": 1}, "geometry": {"type": "LineString", "coordinates": [[32.299641, 4.127944], [32.5682244, 4.4134473]]}}, {"type": "Feature", "properties": {"source": 70, "target": 80, "source_name": "Maiwut", "target_name": "Mathiang", "weight": 3}, "geometry": {"type": "LineString", "coordinates": [[33.923913, 8.6107065], [33.49834, 9.02694]]}}, {"type": "Feature", "properties": {"source": 70, "target": 100, "source_name": "Maiwut", "target_name": "Pagak", "weight": 3}, "geometry": {"type": "LineString", "coordinates": [[33.923913, 8.6107065], [34.0246349, 8.474665]]}}, {"type": "Feature", "properties": {"source": 74, "target": 82, "source_name": "Mankien", "target_name": "Mayom", "weight": 3}, "geometry": {"type": "LineString", "coordinates": [[29.0942416, 9.0524074], [29.1650718, 9.2254694]]}}, {"type": "Feature", "properties": {"source": 75, "target": 108, "source_name": "Manyabol", "target_name": "Pengko", "weight": 3}, "geometry": {"type": "LineString", "coordinates": [[32.575944, 6.466528], [31.9994, 6.19498]]}}, {"type": "Feature", "properties": {"source": 76, "target": 117, "source_name": "Maper (Lakes)", "target_name": "Rumbek", "weight": 3}, "geometry": {"type": "LineString", "coordinates": [[29.7205294, 7.7007016], [29.6767488, 6.8063901]]}}, {"type": "Feature", "properties": {"source": 78, "target": 88, "source_name": "Maridi", "target_name": "Mundri", "weight": 1}, "geometry": {"type": "LineString", "coordinates": [[29.4645282, 4.9143633], [30.3227139, 5.3483937]]}}, {"type": "Feature", "properties": {"source": 78, "target": 135, "source_name": "Maridi", "target_name": "Yambio", "weight": 1}, "geometry": {"type": "LineString", "coordinates": [[29.4645282, 4.9143633], [28.39767, 4.5680716]]}}, {"type": "Feature", "properties": {"source": 80, "target": 128, "source_name": "Mathiang", "target_name": "Udier", "weight": 3}, "geometry": {"type": "LineString", "coordinates": [[33.49834, 9.02694], [33.6780942, 9.3101181]]}}, {"type": "Feature", "properties": {"source": 81, "target": 118, "source_name": "Mayendit", "target_name": "Rupkuai", "weight": 1}, "geometry": {"type": "LineString", "coordinates": [[30.00339, 8.13576], [30.080375, 8.3902359]]}}, {"type": "Feature", "properties": {"source": 82, "target": 126, "source_name": "Mayom", "target_name": "Tumor", "weight": 3}, "geometry": {"type": "LineString", "coordinates": [[29.1650718, 9.2254694], [29.336666, 9.267008]]}}, {"type": "Feature", "properties": {"source": 83, "target": 103, "source_name": "Melut", "target_name": "Paloich", "weight": 1}, "geometry": {"type": "LineString", "coordinates": [[32.2024739, 10.4419745], [32.5466093, 10.4583543]]}}, {"type": "Feature", "properties": {"source": 84, "target": 122, "source_name": "Mingkaman", "target_name": "Terakeka", "weight": 2}, "geometry": {"type": "LineString", "coordinates": [[31.5148179, 6.0548059], [31.753986, 5.450554]]}}, {"type": "Feature", "properties": {"source": 84, "target": 138, "source_name": "Mingkaman", "target_name": "Yirol", "weight": 2}, "geometry": {"type": "LineString", "coordinates": [[31.5148179, 6.0548059], [30.5021651, 6.5566444]]}}, {"type": "Feature", "properties": {"source": 85, "target": 118, "source_name": "Mirmir", "target_name": "Rupkuai", "weight": 1}, "geometry": {"type": "LineString", "coordinates": [[30.101628, 8.4698416], [30.080375, 8.3902359]]}}, {"type": "Feature", "properties": {"source": 87, "target": 106, "source_name": "Motot", "target_name": "Pathai", "weight": 3}, "geometry": {"type": "LineString", "coordinates": [[32.0489069, 8.1647526], [31.8342865, 8.0695589]]}}, {"type": "Feature", "properties": {"source": 87, "target": 110, "source_name": "Motot", "target_name": "Pieri", "weight": 3}, "geometry": {"type": "LineString", "coordinates": [[32.0489069, 8.1647526], [32.0297593, 8.0418191]]}}, {"type": "Feature", "properties": {"source": 87, "target": 130, "source_name": "Motot", "target_name": "Waat", "weight": 3}, "geometry": {"type": "LineString", "coordinates": [[32.0489069, 8.1647526], [32.1528986, 8.179364]]}}, {"type": "Feature", "properties": {"source": 87, "target": 131, "source_name": "Motot", "target_name": "Walgak", "weight": 3}, "geometry": {"type": "LineString", "coordinates": [[32.0489069, 8.1647526], [32.2397749, 8.1595168]]}}, {"type": "Feature", "properties": {"source": 87, "target": 140, "source_name": "Motot", "target_name": "Yuai", "weight": 3}, "geometry": {"type": "LineString", "coordinates": [[32.0489069, 8.1647526], [31.8879957, 7.9071436]]}}, {"type": "Feature", "properties": {"source": 88, "target": 89, "source_name": "Mundri", "target_name": "Mvolo", "weight": 1}, "geometry": {"type": "LineString", "coordinates": [[30.3227139, 5.3483937], [29.9567643, 6.0607554]]}}, {"type": "Feature", "properties": {"source": 88, "target": 120, "source_name": "Mundri", "target_name": "Tali", "weight": 1}, "geometry": {"type": "LineString", "coordinates": [[30.3227139, 5.3483937], [30.7744676, 5.900151]]}}, {"type": "Feature", "properties": {"source": 89, "target": 133, "source_name": "Mvolo", "target_name": "Wulu", "weight": 1}, "geometry": {"type": "LineString", "coordinates": [[29.9567643, 6.0607554], [29.6278427, 6.5114833]]}}, {"type": "Feature", "properties": {"source": 90, "target": 91, "source_name": "Nadapal", "target_name": "Narus", "weight": 1}, "geometry": {"type": "LineString", "coordinates": [[34.1660393, 4.504813], [34.1660393, 4.504813]]}}, {"type": "Feature", "properties": {"source": 97, "target": 99, "source_name": "Nyambor", "target_name": "Pading", "weight": 3}, "geometry": {"type": "LineString", "coordinates": [[31.9459666, 8.4334738], [31.8304793, 8.4529665]]}}, {"type": "Feature", "properties": {"source": 102, "target": 107, "source_name": "Pajut", "target_name": "Payuel", "weight": 3}, "geometry": {"type": "LineString", "coordinates": [[31.6919968, 7.7480429], [31.5521918, 6.4426988]]}}, {"type": "Feature", "properties": {"source": 102, "target": 140, "source_name": "Pajut", "target_name": "Yuai", "weight": 3}, "geometry": {"type": "LineString", "coordinates": [[31.6919968, 7.7480429], [31.8879957, 7.9071436]]}}, {"type": "Feature", "properties": {"source": 103, "target": 115, "source_name": "Paloich", "target_name": "Renk", "weight": 1}, "geometry": {"type": "LineString", "coordinates": [[32.5466093, 10.4583543], [32.8087719, 11.751936]]}}, {"type": "Feature", "properties": {"source": 104, "target": 105, "source_name": "Panakuach", "target_name": "Pariang", "weight": 1}, "geometry": {"type": "LineString", "coordinates": [[29.553512, 9.726252], [29.9816678, 9.9190338]]}}, {"type": "Feature", "properties": {"source": 104, "target": 116, "source_name": "Panakuach", "target_name": "Roriak", "weight": 1}, "geometry": {"type": "LineString", "coordinates": [[29.553512, 9.726252], [29.57856, 9.69324]]}}, {"type": "Feature", "properties": {"source": 105, "target": 137, "source_name": "Pariang", "target_name": "Yida", "weight": 1}, "geometry": {"type": "LineString", "coordinates": [[29.9816678, 9.9190338], [30.08876, 10.10535]]}}, {"type": "Feature", "properties": {"source": 106, "target": 140, "source_name": "Pathai", "target_name": "Yuai", "weight": 3}, "geometry": {"type": "LineString", "coordinates": [[31.8342865, 8.0695589], [31.8879957, 7.9071436]]}}, {"type": "Feature", "properties": {"source": 107, "target": 113, "source_name": "Payuel", "target_name": "Poktap", "weight": 3}, "geometry": {"type": "LineString", "coordinates": [[31.5521918, 6.4426988], [31.4117265, 7.4566724]]}}, {"type": "Feature", "properties": {"source": 109, "target": 129, "source_name": "Pibor", "target_name": "Vertet", "weight": 3}, "geometry": {"type": "LineString", "coordinates": [[33.1297059, 6.8011197], [33.2060535, 6.6793631]]}}, {"type": "Feature", "properties": {"source": 110, "target": 140, "source_name": "Pieri", "target_name": "Yuai", "weight": 3}, "geometry": {"type": "LineString", "coordinates": [[32.0297593, 8.0418191], [31.8879957, 7.9071436]]}}, {"type": "Feature", "properties": {"source": 117, "target": 133, "source_name": "Rumbek", "target_name": "Wulu", "weight": 1}, "geometry": {"type": "LineString", "coordinates": [[29.6767488, 6.8063901], [29.6278427, 6.5114833]]}}, {"type": "Feature", "properties": {"source": 119, "target": 138, "source_name": "Shambe", "target_name": "Yirol", "weight": 2}, "geometry": {"type": "LineString", "coordinates": [[30.7730423, 7.1054884], [30.5021651, 6.5566444]]}}, {"type": "Feature", "properties": {"source": 120, "target": 122, "source_name": "Tali", "target_name": "Terakeka", "weight": 1}, "geometry": {"type": "LineString", "coordinates": [[30.7744676, 5.900151], [31.753986, 5.450554]]}}, {"type": "Feature", "properties": {"source": 121, "target": 132, "source_name": "Tambura", "target_name": "Wau", "weight": 2}, "geometry": {"type": "LineString", "coordinates": [[27.4683476, 5.609579], [27.9909335, 7.7001398]]}}, {"type": "Feature", "properties": {"source": 121, "target": 135, "source_name": "Tambura", "target_name": "Yambio", "weight": 1}, "geometry": {"type": "LineString", "coordinates": [[27.4683476, 5.609579], [28.39767, 4.5680716]]}}, {"type": "Feature", "properties": {"source": 123, "target": 132, "source_name": "Thar Kueng", "target_name": "Wau", "weight": 2}, "geometry": {"type": "LineString", "coordinates": [[27.999419, 8.013623], [27.9909335, 7.7001398]]}}, {"type": "Feature", "properties": {"source": 124, "target": 132, "source_name": "Tonj", "target_name": "Wau", "weight": 1}, "geometry": {"type": "LineString", "coordinates": [[28.681872, 7.2751765], [27.9909335, 7.7001398]]}}, {"type": "Feature", "properties": {"source": 127, "target": 134, "source_name": "Turalei", "target_name": "Wunrok", "weight": 3}, "geometry": {"type": "LineString", "coordinates": [[28.4303002, 9.093424], [28.30202, 8.991486]]}}, {"type": "Feature", "properties": {"source": 130, "target": 131, "source_name": "Waat", "target_name": "Walgak", "weight": 3}, "geometry": {"type": "LineString", "coordinates": [[32.1528986, 8.179364], [32.2397749, 8.1595168]]}}]}