{"type": "FeatureCollection", "crs": {"type": "name", "properties": {"name": "urn:ogc:def:crs:OGC:1.3:CRS84"}}, "features": [{"type": "Feature", "properties": {"node_id": 1, "name": "Abiemnhom", "degree": 3}, "geometry": {"type": "Point", "coordinates": [28.821029, 9.3956658]}}, {"type": "Feature", "properties": {"node_id": 2, "name": "Abyei", "degree": 2}, "geometry": {"type": "Point", "coordinates": [28.4405788, 9.5974896]}}, {"type": "Feature", "properties": {"node_id": 3, "name": "Adar", "degree": 3}, "geometry": {"type": "Point", "coordinates": [32.9623737, 10.064973]}}, {"type": "Feature", "properties": {"node_id": 4, "name": "Adok", "degree": 1}, "geometry": {"type": "Point", "coordinates": [30.3, 8.155]}}, {"type": "Feature", "properties": {"node_id": 5, "name": "Aduel", "degree": 1}, "geometry": {"type": "Point", "coordinates": [29.8976072, 6.6268581]}}, {"type": "Feature", "properties": {"node_id": 6, "name": "Ajak Kuac", "degree": 1}, "geometry": {"type": "Point", "coordinates": [28.7102808, 9.2899378]}}, {"type": "Feature", "properties": {"node_id": 7, "name": "Ajuong Thok", "degree": 1}, "geometry": {"type": "Point", "coordinates": [30.285761, 9.97444]}}, {"type": "Feature", "properties": {"node_id": 8, "name": "Akobo", "degree": 3}, "geometry": {"type": "Point", "coordinates": [33.0029396, 7.7929337]}}, {"type": "Feature", "properties": {"node_id": 9, "name": "Akuem", "degree": 1}, "geometry": {"type": "Point", "coordinates": [27.5065031, 8.9532983]}}, {"type": "Feature", "properties": {"node_id": 10, "name": "Akon", "degree": 2}, "geometry": {"type": "Point", "coordinates": [27.9639708, 8.8908527]}}, {"type": "Feature", "properties": {"node_id": 11, "name": "Akwot", "degree": 3}, "geometry": {"type": "Point", "coordinates": [32.4252, 9.0841]}}, {"type": "Feature", "properties": {"node_id": 12, "name": "Aluakluak", "degree": 4}, "geometry": {"type": "Point", "coordinates": [30.100124821135964, 6.472670041008651]}}, {"type": "Feature", "properties": {"node_id": 13, "name": "Amok Piny", "degree": 2}, "geometry": {"type": "Point", "coordinates": [30.07855, 7.05454]}}, {"type": "Feature", "properties": {"node_id": 14, "name": "Aweil", "degree": 5}, "geometry": {"type": "Point", "coordinates": [27.3962085, 8.7693352]}}, {"type": "Feature", "properties": {"node_id": 15, "name": "Ayod", "degree": 3}, "geometry": {"type": "Point", "coordinates": [31.4097976, 8.1236035]}}, {"type": "Feature", "properties": {"node_id": 16, "name": "Baidit", "degree": 2}, "geometry": {"type": "Point", "coordinates": [31.5340167, 6.4663339]}}, {"type": "Feature", "properties": {"node_id": 17, "name": "Baliet", "degree": 2}, "geometry": {"type": "Point", "coordinates": [32.0661924, 9.2971519]}}, {"type": "Feature", "properties": {"node_id": 18, "name": "Bentiu", "degree": 4}, "geometry": {"type": "Point", "coordinates": [29.7976737, 9.2481076]}}, {"type": "Feature", "properties": {"node_id": 19, "name": "Boma", "degree": 4}, "geometry": {"type": "Point", "coordinates": [34.3922514, 6.1824839]}}, {"type": "Feature", "properties": {"node_id": 20, "name": "Bor", "degree": 4}, "geometry": {"type": "Point", "coordinates": [31.5614397, 6.2108741]}}, {"type": "Feature", "properties": {"node_id": 21, "name": "Chandoy/Dolo2", "degree": 1}, "geometry": {"type": "Point", "coordinates": [25.3744, 8.21562]}}, {"type": "Feature", "properties": {"node_id": 22, "name": "Chukudum", "degree": 1}, "geometry": {"type": "Point", "coordinates": [33.4945369, 4.2331068]}}, {"type": "Feature", "properties": {"node_id": 23, "name": "Dablual", "degree": 1}, "geometry": {"type": "Point", "coordinates": [30.0152277, 8.3122575]}}, {"type": "Feature", "properties": {"node_id": 24, "name": "Deim Zubeir", "degree": 2}, "geometry": {"type": "Point", "coordinates": [26.1951973, 7.71624]}}, {"type": "Feature", "properties": {"node_id": 25, "name": "Dhorbor", "degree": 2}, "geometry": {"type": "Point", "coordinates": [29.52674, 9.27999]}}, {"type": "Feature", "properties": {"node_id": 26, "name": "Diabio", "degree": 1}, "geometry": {"type": "Point", "coordinates": [28.025693, 4.9728686]}}, {"type": "Feature", "properties": {"node_id": 27, "name": "Ding Ding", "degree": 2}, "geometry": {"type": "Point", "coordinates": [29.85804763267076, 8.893915191335227]}}, {"type": "Feature", "properties": {"node_id": 28, "name": "Duk Padiet", "degree": 3}, "geometry": {"type": "Point", "coordinates": [31.3959666, 7.7497653]}}, {"type": "Feature", "properties": {"node_id": 29, "name": "Ezo", "degree": 1}, "geometry": {"type": "Point", "coordinates": [27.466719, 5.0857047]}}, {"type": "Feature", "properties": {"node_id": 30, "name": "Fatuet", "degree": 1}, "geometry": {"type": "Point", "coordinates": [31.655171606286352, 7.822797337019272]}}, {"type": "Feature", "properties": {"node_id": 31, "name": "Gadiang", "degree": 6}, "geometry": {"type": "Point", "coordinates": [31.7050412, 7.1428253]}}, {"type": "Feature", "properties": {"node_id": 32, "name": "Ganyiel", "degree": 1}, "geometry": {"type": "Point", "coordinates": [30.472528, 7.405133]}}, {"type": "Feature", "properties": {"node_id": 33, "name": "Gemeiza", "degree": 2}, "geometry": {"type": "Point", "coordinates": [31.797714, 5.6807128]}}, {"type": "Feature", "properties": {"node_id": 34, "name": "Gogrial", "degree": 3}, "geometry": {"type": "Point", "coordinates": [28.0984675, 8.5344438]}}, {"type": "Feature", "properties": {"node_id": 35, "name": "Gossinga", "degree": 3}, "geometry": {"type": "Point", "coordinates": [25.981885951833736, 8.647804284789705]}}, {"type": "Feature", "properties": {"node_id": 36, "name": "Guit", "degree": 5}, "geometry": {"type": "Point", "coordinates": [29.9139909, 9.1625559]}}, {"type": "Feature", "properties": {"node_id": 37, "name": "Gumuruk", "degree": 2}, "geometry": {"type": "Point", "coordinates": [32.9095416, 6.635056]}}, {"type": "Feature", "properties": {"node_id": 38, "name": "Hiyala", "degree": 1}, "geometry": {"type": "Point", "coordinates": [32.8714002, 4.4616286]}}, {"type": "Feature", "properties": {"node_id": 39, "name": "Ikotos", "degree": 1}, "geometry": {"type": "Point", "coordinates": [33.1078963, 4.0784728]}}, {"type": "Feature", "properties": {"node_id": 40, "name": "Imehejek", "degree": 1}, "geometry": {"type": "Point", "coordinates": [32.7581757, 4.7620743]}}, {"type": "Feature", "properties": {"node_id": 41, "name": "Jemaam", "degree": 2}, "geometry": {"type": "Point", "coordinates": [33.22419, 10.147423]}}, {"type": "Feature", "properties": {"node_id": 42, "name": "Juba", "degree": 8}, "geometry": {"type": "Point", "coordinates": [31.5959173, 4.8459246]}}, {"type": "Feature", "properties": {"node_id": 43, "name": "Kaikang", "degree": 2}, "geometry": {"type": "Point", "coordinates": [29.150760722281603, 9.30233607075806]}}, {"type": "Feature", "properties": {"node_id": 44, "name": "Kaikuny", "degree": 2}, "geometry": {"type": "Point", "coordinates": [32.3927247, 8.0945809]}}, {"type": "Feature", "properties": {"node_id": 45, "name": "Kajo Keji", "degree": 1}, "geometry": {"type": "Point", "coordinates": [31.6649919, 3.8732643]}}, {"type": "Feature", "properties": {"node_id": 46, "name": "Kapalala", "degree": 2}, "geometry": {"type": "Point", "coordinates": [26.00505386034703, 8.446188214681003]}}, {"type": "Feature", "properties": {"node_id": 47, "name": "Kapoeta", "degree": 4}, "geometry": {"type": "Point", "coordinates": [33.58997, 4.7691017]}}, {"type": "Feature", "properties": {"node_id": 48, "name": "Karam", "degree": 2}, "geometry": {"type": "Point", "coordinates": [31.823863, 8.209632]}}, {"type": "Feature", "properties": {"node_id": 49, "name": "Kassangor", "degree": 1}, "geometry": {"type": "Point", "coordinates": [33.9730397, 5.7670781]}}, {"type": "Feature", "properties": {"node_id": 50, "name": "Keew", "degree": 1}, "geometry": {"type": "Point", "coordinates": [30.638833, 9.2605]}}, {"type": "Feature", "properties": {"node_id": 51, "name": "Kiech Kon", "degree": 2}, "geometry": {"type": "Point", "coordinates": [32.9282309, 8.9528142]}}, {"type": "Feature", "properties": {"node_id": 52, "name": "Kilo 30", "degree": 6}, "geometry": {"type": "Point", "coordinates": [29.674058, 9.477118]}}, {"type": "Feature", "properties": {"node_id": 53, "name": "Koch", "degree": 3}, "geometry": {"type": "Point", "coordinates": [29.995299, 8.593184]}}, {"type": "Feature", "properties": {"node_id": 54, "name": "Kodok", "degree": 2}, "geometry": {"type": "Point", "coordinates": [32.108345, 9.8875]}}, {"type": "Feature", "properties": {"node_id": 55, "name": "Kongor", "degree": 1}, "geometry": {"type": "Point", "coordinates": [31.35167, 7.14117]}}, {"type": "Feature", "properties": {"node_id": 56, "name": "Kuajok", "degree": 2}, "geometry": {"type": "Point", "coordinates": [27.9789446, 8.3024209]}}, {"type": "Feature", "properties": {"node_id": 57, "name": "Kuernyang", "degree": 1}, "geometry": {"type": "Point", "coordinates": [30.8886612, 9.3195216]}}, {"type": "Feature", "properties": {"node_id": 58, "name": "Kuron", "degree": 2}, "geometry": {"type": "Point", "coordinates": [34.5650725, 5.7056582]}}, {"type": "Feature", "properties": {"node_id": 59, "name": "Labarab", "degree": 3}, "geometry": {"type": "Point", "coordinates": [33.9696989, 6.6611024]}}, {"type": "Feature", "properties": {"node_id": 60, "name": "Lafon", "degree": 3}, "geometry": {"type": "Point", "coordinates": [32.4731135, 5.0289515]}}, {"type": "Feature", "properties": {"node_id": 61, "name": "Lainya", "degree": 2}, "geometry": {"type": "Point", "coordinates": [31.0755257, 4.3396843]}}, {"type": "Feature", "properties": {"node_id": 62, "name": "Langdit", "degree": 2}, "geometry": {"type": "Point", "coordinates": [29.09257692380704, 7.063972150461279]}}, {"type": "Feature", "properties": {"node_id": 63, "name": "Lankien", "degree": 2}, "geometry": {"type": "Point", "coordinates": [32.0618875, 8.5248787]}}, {"type": "Feature", "properties": {"node_id": 64, "name": "Leer", "degree": 2}, "geometry": {"type": "Point", "coordinates": [30.1411544, 8.3040834]}}, {"type": "Feature", "properties": {"node_id": 65, "name": "Likuangole", "degree": 2}, "geometry": {"type": "Point", "coordinates": [33.0075607, 7.0506672]}}, {"type": "Feature", "properties": {"node_id": 66, "name": "Maban", "degree": 1}, "geometry": {"type": "Point", "coordinates": [33.7259061, 9.9633955]}}, {"type": "Feature", "properties": {"node_id": 67, "name": "Mabior", "degree": 4}, "geometry": {"type": "Point", "coordinates": [31.4038165, 7.1653652]}}, {"type": "Feature", "properties": {"node_id": 68, "name": "Madol", "degree": 1}, "geometry": {"type": "Point", "coordinates": [29.8426, 7.90323]}}, {"type": "Feature", "properties": {"node_id": 69, "name": "Magwi", "degree": 1}, "geometry": {"type": "Point", "coordinates": [32.299641, 4.127944]}}, {"type": "Feature", "properties": {"node_id": 70, "name": "Maiwut", "degree": 2}, "geometry": {"type": "Point", "coordinates": [33.923913, 8.6107065]}}, {"type": "Feature", "properties": {"node_id": 71, "name": "Malakal", "degree": 2}, "geometry": {"type": "Point", "coordinates": [31.6584168, 9.5388487]}}, {"type": "Feature", "properties": {"node_id": 72, "name": "Manga Port", "degree": 1}, "geometry": {"type": "Point", "coordinates": [29.982872, 9.447218]}}, {"type": "Feature", "properties": {"node_id": 73, "name": "Mangalla", "degree": 2}, "geometry": {"type": "Point", "coordinates": [31.7699131, 5.1998722]}}, {"type": "Feature", "properties": {"node_id": 74, "name": "Mankien", "degree": 2}, "geometry": {"type": "Point", "coordinates": [29.0942416, 9.0524074]}}, {"type": "Feature", "properties": {"node_id": 75, "name": "Manyabol", "degree": 3}, "geometry": {"type": "Point", "coordinates": [32.575944, 6.466528]}}, {"type": "Feature", "properties": {"node_id": 76, "name": "Maper (Lakes)", "degree": 2}, "geometry": {"type": "Point", "coordinates": [29.7205294, 7.7007016]}}, {"type": "Feature", "properties": {"node_id": 77, "name": "Mapuordit", "degree": 1}, "geometry": {"type": "Point", "coordinates": [30.074859, 6.339249]}}, {"type": "Feature", "properties": {"node_id": 78, "name": "Maridi", "degree": 2}, "geometry": {"type": "Point", "coordinates": [29.4645282, 4.9143633]}}, {"type": "Feature", "properties": {"node_id": 79, "name": "Maruwa", "degree": 2}, "geometry": {"type": "Point", "coordinates": [33.99062003653451, 6.199669232652293]}}, {"type": "Feature", "properties": {"node_id": 80, "name": "Mathiang", "degree": 3}, "geometry": {"type": "Point", "coordinates": [33.49834, 9.02694]}}, {"type": "Feature", "properties": {"node_id": 81, "name": "Mayendit", "degree": 1}, "geometry": {"type": "Point", "coordinates": [30.00339, 8.13576]}}, {"type": "Feature", "properties": {"node_id": 82, "name": "Mayom", "degree": 5}, "geometry": {"type": "Point", "coordinates": [29.1650718, 9.2254694]}}, {"type": "Feature", "properties": {"node_id": 83, "name": "Melut", "degree": 1}, "geometry": {"type": "Point", "coordinates": [32.2024739, 10.4419745]}}, {"type": "Feature", "properties": {"node_id": 84, "name": "Mingkaman", "degree": 2}, "geometry": {"type": "Point", "coordinates": [31.5148179, 6.0548059]}}, {"type": "Feature", "properties": {"node_id": 85, "name": "Mirmir", "degree": 4}, "geometry": {"type": "Point", "coordinates": [30.101628, 8.4698416]}}, {"type": "Feature", "properties": {"node_id": 86, "name": "Mogok", "degree": 1}, "geometry": {"type": "Point", "coordinates": [31.329687, 8.4180563]}}, {"type": "Feature", "properties": {"node_id": 87, "name": "Motot", "degree": 6}, "geometry": {"type": "Point", "coordinates": [32.0489069, 8.1647526]}}, {"type": "Feature", "properties": {"node_id": 88, "name": "Mundri", "degree": 4}, "geometry": {"type": "Point", "coordinates": [30.3227139, 5.3483937]}}, {"type": "Feature", "properties": {"node_id": 89, "name": "Mvolo", "degree": 3}, "geometry": {"type": "Point", "coordinates": [29.9567643, 6.0607554]}}, {"type": "Feature", "properties": {"node_id": 90, "name": "Nadapal", "degree": 1}, "geometry": {"type": "Point", "coordinates": [34.1660393, 4.504813]}}, {"type": "Feature", "properties": {"node_id": 91, "name": "Narus", "degree": 3}, "geometry": {"type": "Point", "coordinates": [34.1660393, 4.504813]}}, {"type": "Feature", "properties": {"node_id": 92, "name": "Nasser", "degree": 1}, "geometry": {"type": "Point", "coordinates": [33.0737, 8.61709]}}, {"type": "Feature", "properties": {"node_id": 93, "name": "New Fangak", "degree": 1}, "geometry": {"type": "Point", "coordinates": [31.162239, 9.4073225]}}, {"type": "Feature", "properties": {"node_id": 94, "name": "Nhialdiu", "degree": 1}, "geometry": {"type": "Point", "coordinates": [29.6761979, 9.0230181]}}, {"type": "Feature", "properties": {"node_id": 95, "name": "Nimule", "degree": 1}, "geometry": {"type": "Point", "coordinates": [32.0601419, 3.5969348]}}, {"type": "Feature", "properties": {"node_id": 96, "name": "Nyal", "degree": 1}, "geometry": {"type": "Point", "coordinates": [30.2419019, 7.7270653]}}, {"type": "Feature", "properties": {"node_id": 97, "name": "Nyambor", "degree": 2}, "geometry": {"type": "Point", "coordinates": [31.9459666, 8.4334738]}}, {"type": "Feature", "properties": {"node_id": 98, "name": "Nyandit", "degree": 1}, "geometry": {"type": "Point", "coordinates": [32.975167, 7.62]}}, {"type": "Feature", "properties": {"node_id": 99, "name": "Pading", "degree": 2}, "geometry": {"type": "Point", "coordinates": [31.8304793, 8.4529665]}}, {"type": "Feature", "properties": {"node_id": 100, "name": "Pagak", "degree": 1}, "geometry": {"type": "Point", "coordinates": [34.0246349, 8.474665]}}, {"type": "Feature", "properties": {"node_id": 101, "name": "Paguir", "degree": 1}, "geometry": {"type": "Point", "coordinates": [30.7665154, 9.119437]}}, {"type": "Feature", "properties": {"node_id": 102, "name": "Pajut", "degree": 3}, "geometry": {"type": "Point", "coordinates": [31.6919968, 7.7480429]}}, {"type": "Feature", "properties": {"node_id": 103, "name": "Paloich", "degree": 4}, "geometry": {"type": "Point", "coordinates": [32.5466093, 10.4583543]}}, {"type": "Feature", "properties": {"node_id": 104, "name": "Panakuach", "degree": 2}, "geometry": {"type": "Point", "coordinates": [29.553512, 9.726252]}}, {"type": "Feature", "properties": {"node_id": 105, "name": "Pariang", "degree": 4}, "geometry": {"type": "Point", "coordinates": [29.9816678, 9.9190338]}}, {"type": "Feature", "properties": {"node_id": 106, "name": "Pathai", "degree": 5}, "geometry": {"type": "Point", "coordinates": [31.8342865, 8.0695589]}}, {"type": "Feature", "properties": {"node_id": 107, "name": "Payuel", "degree": 3}, "geometry": {"type": "Point", "coordinates": [31.5521918, 6.4426988]}}, {"type": "Feature", "properties": {"node_id": 108, "name": "Pengko", "degree": 2}, "geometry": {"type": "Point", "coordinates": [31.9994, 6.19498]}}, {"type": "Feature", "properties": {"node_id": 109, "name": "Pibor", "degree": 3}, "geometry": {"type": "Point", "coordinates": [33.1297059, 6.8011197]}}, {"type": "Feature", "properties": {"node_id": 110, "name": "Pieri", "degree": 2}, "geometry": {"type": "Point", "coordinates": [32.0297593, 8.0418191]}}, {"type": "Feature", "properties": {"node_id": 111, "name": "Piling", "degree": 2}, "geometry": {"type": "Point", "coordinates": [30.201707628273248, 8.266435808048447]}}, {"type": "Feature", "properties": {"node_id": 112, "name": "Pochala", "degree": 1}, "geometry": {"type": "Point", "coordinates": [34.0968566208686, 7.1851834664354906]}}, {"type": "Feature", "properties": {"node_id": 113, "name": "Poktap", "degree": 1}, "geometry": {"type": "Point", "coordinates": [31.4117265, 7.4566724]}}, {"type": "Feature", "properties": {"node_id": 114, "name": "Raja", "degree": 4}, "geometry": {"type": "Point", "coordinates": [25.6793739, 8.4694625]}}, {"type": "Feature", "properties": {"node_id": 115, "name": "Renk", "degree": 1}, "geometry": {"type": "Point", "coordinates": [32.8087719, 11.751936]}}, {"type": "Feature", "properties": {"node_id": 116, "name": "Roriak", "degree": 3}, "geometry": {"type": "Point", "coordinates": [29.57856, 9.69324]}}, {"type": "Feature", "properties": {"node_id": 117, "name": "Rumbek", "degree": 4}, "geometry": {"type": "Point", "coordinates": [29.6767488, 6.8063901]}}, {"type": "Feature", "properties": {"node_id": 118, "name": "Rupkuai", "degree": 2}, "geometry": {"type": "Point", "coordinates": [30.080375, 8.3902359]}}, {"type": "Feature", "properties": {"node_id": 119, "name": "Shambe", "degree": 1}, "geometry": {"type": "Point", "coordinates": [30.7730423, 7.1054884]}}, {"type": "Feature", "properties": {"node_id": 120, "name": "Tali", "degree": 2}, "geometry": {"type": "Point", "coordinates": [30.7744676, 5.900151]}}, {"type": "Feature", "properties": {"node_id": 121, "name": "Tambura", "degree": 2}, "geometry": {"type": "Point", "coordinates": [27.4683476, 5.609579]}}, {"type": "Feature", "properties": {"node_id": 122, "name": "Terakeka", "degree": 3}, "geometry": {"type": "Point", "coordinates": [31.753986, 5.450554]}}, {"type": "Feature", "properties": {"node_id": 123, "name": "Thar Kueng", "degree": 2}, "geometry": {"type": "Point", "coordinates": [27.999419, 8.013623]}}, {"type": "Feature", "properties": {"node_id": 124, "name": "Tonj", "degree": 2}, "geometry": {"type": "Point", "coordinates": [28.681872, 7.2751765]}}, {"type": "Feature", "properties": {"node_id": 125, "name": "Torit", "degree": 4}, "geometry": {"type": "Point", "coordinates": [32.5682244, 4.4134473]}}, {"type": "Feature", "properties": {"node_id": 126, "name": "Tumor", "degree": 2}, "geometry": {"type": "Point", "coordinates": [29.336666, 9.267008]}}, {"type": "Feature", "properties": {"node_id": 127, "name": "Turalei", "degree": 2}, "geometry": {"type": "Point", "coordinates": [28.4303002, 9.093424]}}, {"type": "Feature", "properties": {"node_id": 128, "name": "Udier", "degree": 1}, "geometry": {"type": "Point", "coordinates": [33.6780942, 9.3101181]}}, {"type": "Feature", "properties": {"node_id": 129, "name": "Vertet", "degree": 2}, "geometry": {"type": "Point", "coordinates": [33.2060535, 6.6793631]}}, {"type": "Feature", "properties": {"node_id": 130, "name": "Waat", "degree": 2}, "geometry": {"type": "Point", "coordinates": [32.1528986, 8.179364]}}, {"type": "Feature", "properties": {"node_id": 131, "name": "Walgak", "degree": 3}, "geometry": {"type": "Point", "coordinates": [32.2397749, 8.1595168]}}, {"type": "Feature", "properties": {"node_id": 132, "name": "Wau", "degree": 5}, "geometry": {"type": "Point", "coordinates": [27.9909335, 7.7001398]}}, {"type": "Feature", "properties": {"node_id": 133, "name": "Wulu", "degree": 2}, "geometry": {"type": "Point", "coordinates": [29.6278427, 6.5114833]}}, {"type": "Feature", "properties": {"node_id": 134, "name": "Wunrok", "degree": 3}, "geometry": {"type": "Point", "coordinates": [28.30202, 8.991486]}}, {"type": "Feature", "properties": {"node_id": 135, "name": "Yambio", "degree": 2}, "geometry": {"type": "Point", "coordinates": [28.39767, 4.5680716]}}, {"type": "Feature", "properties": {"node_id": 136, "name": "Yei", "degree": 1}, "geometry": {"type": "Point", "coordinates": [30.6756882, 4.0941656]}}, {"type": "Feature", "properties": {"node_id": 137, "name": "Yida", "degree": 1}, "geometry": {"type": "Point", "coordinates": [30.08876, 10.10535]}}, {"type": "Feature", "properties": {"node_id": 138, "name": "Yirol", "degree": 3}, "geometry": {"type": "Point", "coordinates": [30.5021651, 6.5566444]}}, {"type": "Feature", "properties": {"node_id": 139, "name": "Yith Pabol", "degree": 1}, "geometry": {"type": "Point", "coordinates": [27.707058522367618, 9.57243962730569]}}, {"type": "Feature", "properties": {"node_id": 140, "name": "Yuai", "degree": 5}, "geometry": {"type": "Point", "coordinates": [31.8879957, 7.9071436]}}]}